Type,Store ID,Name,Address,Opening Hour,Zip Code,City,Canton,Longitude,Latitude
M-Migros,90320,Aachtal,"Schrofenstrasse 19, 8580 Amriswil",,8580,Amriswil,Zürich,9.2733516,47.5481986
M-Migros,93780,Aadorf,"Bahnhofstrasse 2, 8355 Aadorf",,8355,Aadorf,Zürich,8.899659,47.490191
MM-Migros,34213,Aarau - Igelweid,"Igelweid 18, 5000 Aarau",,5000,Aarau,Aargau,8.046135,47.39173
M-Migros,33823,Aarau Bahnhof,"Bahnhofplatz 3h, 5000 Aarau",,5000,Aarau,Aargau,8.0528712,47.391848
MM-Migros,90491,Abtwil - Säntispark,"Wiesenbachstrasse 7, 9030 Abtwil SG",,9030,Abtwil,Zürich,9.3165209,47.4177991
M-Migros,73340,Adligenswil LU,"Obgardirain 1, 6043 Adligenswil",,6043,Adligenswil,Luzern,8.361919,47.0714902
MM-Migros,150062,Adliswil,"Albisstrasse 10, 8134 Adliswil",,8134,Adliswil,Zürich,8.5252778,47.3111111
MM-Migros,24600,Aesch,"Hauptstrasse 95, 4147 Aesch",,4147,Aesch,Basel-Landschaft,7.5954839,47.4689965
MM-Migros,150079,Affoltern a. A.,"Oberdorfstrasse 4, 8910 Affoltern am Albis",,8910,Affoltern,Zürich,8.4535135,47.2782632
MM-Migros,84360,Agy,"route d'Agy 2, 1763 Granges-Paccot",,1763,Granges,Fribourg,7.1540088,46.8208122
MMM-Migros,65100,Aigle - Chablais Centre,"Ch. Sous-le-Grand Pré 4, 1860 Aigle",,1860,Aigle,Vaud,6.9360255,46.3175551
M-Migros,63665,Aigle gare,"Place de la gare 5, 1860 Aigle",,1860,Aigle,Vaud,6.964893099999999,46.316088
MMM-Migros,24720,Allschwil - Paradies,"Spitzwaldstrasse 215, 4123 Allschwil",,4123,Allschwil,Basel-Landschaft,7.5532678,47.5475645
M-Migros,23220,Allschwil - Ziegelei,"Baslerstrasse 191, 4123 Allschwil",,4123,Allschwil,Basel-Landschaft,7.5502509,47.5530644
Migros-Partner,29530,Allschwil-Lindenplatz,"Lindenplatz 1, 4123 Allschwil",,4123,Allschwil,Basel-Landschaft,7.560574900000001,47.55786639999999
M-Migros,73990,Altdorf,"Gitschenstrasse 14, 6460 Altdorf",,6460,Altdorf,Uri,8.641610499999999,46.8796664
MM-Migros,90415,Altstätten SG,"Stossstrasse 2, 9450 Altstätten SG",,9450,Altstätten,Zürich,9.5373227,47.37710449999999
MM-Migros,90420,Amriswil,"Rütistrasse 10a, 8580 Amriswil",,8580,Amriswil,Zürich,9.2981099,47.5466163
M-Migros,93790,Andelfingen,"Weinlandstrasse 4, 8451 Kleinandelfingen",,8451,Kleinandelfingen,Zürich,8.6887168,47.6019644
MM-Migros,90422,Appenzell,"Unteres Ziel, 9050 Appenzell",,9050,Appenzell,Zürich,9.4086941,47.3346022
M-Migros,123780,Arbedo Castione,"Via Corogna, 6532 Castione",,6532,Castione,Ticino,9.0441638,46.2251077
MM-Migros,90421,Arbon,"St. Gallerstrasse 6, 9320 Arbon",,9320,Arbon,Zürich,9.4323491,47.5133489
MM-Migros,24630,Arlesheim,"Postplatz 7, 4144 Arlesheim",,4144,Arlesheim,Basel-Landschaft,7.6185546,47.49426099999999
M-Migros,123750,Ascona,"Via Muraccio 2, 6612 Ascona",,6612,Ascona,Ticino,8.7738011,46.1542119
M-Migros,90323,Au SG,"Nollenhornstrasse 9, 9434 Au SG",,9434,Au,Zürich,9.6380345,47.4311521
Migros-Partner,63102,Aubonne,"des Fossés-Dessous, 1170 Aubonne",,1170,Aubonne,Vaud,6.3902017,46.4948658
M-Migros,83810,Avenches,"Route de Pré-Vert 5, 1580 Avenches",,1580,Avenches,Vaud,7.0455299,46.8864868
MMM-Migros,84710,Avry Centre,"Route de Matran 9, 1754 Avry-sur-Matran",,1754,Avry,Fribourg,7.0781119,46.7876479
M-Migros,73850,Baar,"Bahnhofstrasse 5, 6340 Baar",,6340,Baar,Luzern,8.525,47.1955556
Migros-Partner,90728,Bad Ragaz,"Bahnhofstrasse 2, 7310 Bad Ragaz",,7310,Bad,Graubünden,9.501330099999999,47.0033869
MM-Migros,34393,Bad Zurzach,"Promenadenstrasse 10, 5330 Bad Zurzach",,5330,Bad,Aargau,8.2962551,47.5859375
MM-Migros,34233,Baden - City,"Bahnhofstrasse 40/42, 5400 Baden",,5400,Baden,Aargau,8.3085122,47.4769437
M-Migros,33723,Balsthal,"Goldgasse 13, 4710 Balsthal",,4710,Balsthal,Solothurn,7.695344299999999,47.316742
M-Migros,23170,Basel - Allschwiler,"Allschwilerstrasse 31, 4055 Basel",,4055,Basel,Basel-Stadt,7.573294,47.55601
M-Migros,23900,Basel - Bahnhof SBB,"Centralbahnstrasse 10, 4051 Basel",,4051,Basel,Basel-Stadt,7.5887825,47.5477915
Migros-Partner,29560,Basel - Birsigstrasse,"Birsigstrasse 105, 4054 Basel",,4054,Basel,Basel-Stadt,7.5783697,47.5500859
MM-Migros,24560,Basel - Burgfelder,"Burgfelderstrasse 11, 4055 Basel",,4055,Basel,Basel-Stadt,7.5726274,47.5623944
MMM-Migros,24240,Basel - Claramarkt,"Untere Rebgasse 11, 4058 Basel",,4058,Basel,Basel-Stadt,7.592391699999999,47.5617083
MM-Migros,24280,Basel - Drachen-Center,"Aeschenvorstadt 24, 4051 Basel",,4051,Basel,Basel-Stadt,7.5929774,47.5526875
Migros Fachmarkt,23200,Basel - Dreispitz MParc,"Münchensteinerstrasse 200, 4053 Basel",,4053,Basel,Basel-Stadt,7.603871000000001,47.539343
MM-Migros,23840,Basel - Efringer,"Efringerstrasse 32, 4057 Basel",,4057,Basel,Basel-Stadt,7.5964325,47.56916349999999
M-Migros,23880,Basel - Eglisee,"Riehenstrasse 315, 4058 Basel",,4058,Basel,Basel-Stadt,7.615326400000001,47.56990589999999
MM-Migros,24520,Basel - Gundelitor,"Güterstrasse 180, 4053 Basel",,4053,Basel,Basel-Stadt,7.592101899999999,47.5435858
M-Migros,23870,Basel - Hardstrasse,"Hardstrasse 105, 4052 Basel",,4052,Basel,Basel-Stadt,7.607247300000001,47.5493601
Migros-Partner,29600,Basel - Inselstrasse,"Inselstrasse 63, 4057 Basel",,4057,Basel,Basel-Stadt,7.590504799999999,47.57738639999999
M-Migros,23890,Basel - Juniors Market,"Grenzacherstrasse 62/64, 4058 Basel",,4058,Basel,Basel-Stadt,7.6018015,47.55872410000001
Migros-Partner,29520,Basel - Lachenstrasse,"Lachenstrasse 1, 4056 Basel",,4056,Basel,Basel-Stadt,7.569788699999999,47.5681772
M-Migros,23820,Basel - Märtplatz,"Eisengasse 12, 4051 Basel",,4051,Basel,Basel-Stadt,7.587763799999999,47.55928129999999
M-Migros,23720,Basel - Mülhauser,"Mülhauserstrasse 70-72, 4056 Basel",,4056,Basel,Basel-Stadt,7.5794147,47.56836329999999
M-Migros,23670,Basel - Neuweiler,"Neuweilerplatz 7, 4054 Basel",,4054,Basel,Basel-Stadt,7.564209900000001,47.5469482
M-Migros,23160,Basel - Schützenmatt,"Schützenmattstrasse 27, 4051 Basel",,4051,Basel,Basel-Stadt,7.581315699999999,47.5560442
M-Migros,23910,Basel - Stücki,"Hochbergerstrasse 70, 4057 Basel",,4057,Basel,Basel-Stadt,7.5963342,47.5799457
Migros-Partner,29510,Basel - Wanderstrasse,"Wanderstrasse 121, 4054 Basel",,4054,Basel,Basel-Stadt,7.563035299999999,47.5518918
Migros-Partner,29610,Basel - Wasgenring,"Blotzheimerstrasse 61, 4055 Basel",,4055,Basel,Basel-Stadt,7.564845599999999,47.5610829
Migros-Partner,29500,Basel - Zürcherstrasse,"Zürcherstrasse 160, 4052 Basel",,4052,Basel,Basel-Stadt,7.614787799999999,47.5553278
MM-Migros,150164,Bassersdorf,"Baltenswilerstrasse 5a, 8303 Bassersdorf",,8303,Bassersdorf,Zürich,8.629882199999999,47.44250539999999
M-Migros,93300,Bauma,"Heinrich - Gujerstrasse 10, 8494 Bauma",,8494,Bauma,Zürich,8.8777103,47.3680611
Migros-Partner,63142,Bavois,"Autoroute A1, Restoroute de Bavois, 1372 Bavois",,1372,Bavois,Vaud,6.5688889,46.6747222
M-Migros,90380,Bazenheid,"Wilerstrasse 17, 9602 Bazenheid",,9602,Bazenheid,St. Gallen,9.0680487,47.4126765
M-Migros,83670,Beauregard,"Chemin de Béthléem 7, 1700 Fribourg",,1700,Fribourg,Fribourg,7.144433299999999,46.8006093
M-Migros,83850,Belfaux,"route de Lossy 16b, 1782 Belfaux",,1782,Belfaux,Fribourg,7.1090227,46.8228541
MM-Migros,124210,Bellinzona - Piazza del Sole,"Piazza Rinaldo Simen 8, 6500 Bellinzona",,6500,Bellinzona,Ticino,9.0242741,46.1936129
MM-Migros,34540,Belp,"Steinbachstrasse 28, 3123 Belp",,3123,Belp,Bern,7.493174,46.8965219
M-Migros,33893,Berikon - Mutschellen,"Bellikerstrasse 13, 8965 Berikon",,8965,Berikon,Zürich,8.3658865,47.3635301
M-Migros,93700,Beringen,"Schaffhauserstrasse 72, 8222 Beringen",,8222,Beringen,Zürich,8.5823278,47.6959077
MM-Migros,34450,Bern - Bachmätteli,"Bottigenstrasse 7, 3018 Bern",,3018,Bern,Bern,7.3898398,46.9394199
MM-Migros,34530,Bern - Bahnhof,"Bahnhofplatz 10, 3011 Bern",,3011,Bern,Bern,7.4400441,46.9492666
MM-Migros,34210,Bern - Bethlehem,"Riedbachstrasse 10, 3027 Bern",,3027,Bern,Bern,7.383285,46.947532
M-Migros,33630,Bern - Breitenrain,"Breitenrainstrasse 11, 3013 Bern",,3013,Bern,Bern,7.4539235,46.9581627
MM-Migros,34440,Bern - Bubenberg,"Bubenbergplatz 8, 3011 Bern",,3011,Bern,Bern,7.438133099999999,46.947689
M-Migros,33115,Bern - Christoffel,"Christoffelunterführung, 3011 Bern",,3011,Bern,Bern,7.443910799999999,46.94923499999999
M-Migros,33140,Bern - Egghölzli,"Egghölzlistrasse 1 / 1a, 3006 Bern",,3006,Bern,Bern,7.475561300000001,46.9369856
M-Migros,33640,Bern - Eigerplatz,"Seftigenstrasse 1, 3007 Bern",,3007,Bern,Bern,7.431858800000001,46.94008119999999
MM-Migros,34220,Bern - Freudenberg,"Giacomettistrasse 15, 3006 Bern",,3006,Bern,Bern,7.4728372,46.9455765
M-Migros,33220,Bern - Kirchenfeld,"Thunstrasse 18, 3005 Bern",,3005,Bern,Bern,7.4530603,46.9422743
M-Migros,33121,Bern - Lorraine,"Dammweg 9, 3013 Bern",,3013,Bern,Bern,7.4466325,46.95610440000001
MMM-Migros,34710,Bern - Marktgasse,"Marktgasse 46, 3011 Bern",,3011,Bern,Bern,7.4450371,46.9482562
M-Migros,33810,Bern - Welle 7,"Schanzenstrasse 5, 3000 Bern",,3000,Bern,Bern,7.4363272,46.9479748
MM-Migros,34320,Bern - Westside,"Gilberte-de-Courgenay-Platz 4, 3027 Bern",,3027,Bern,Bern,7.3740809,46.94580029999999
MM-Migros,34230,Bern - Winkelried,"Wankdorffeldstrasse 71, 3014 Bern",,3014,Bern,Bern,7.4635238,46.96580489999999
MM-Migros,34360,Bern - Zähringer,"Zähringerstrasse 43, 3012 Bern",,3012,Bern,Bern,7.433637,46.95519240000001
M-Migros,33390,Bern Burgernziel,"Thunstrasse 110, 3006 Bern",,3006,Bern,Bern,7.4658915,46.9414209
M-Migros,33820,Bern Westflügel,"Bethlehemstrasse 40, 3027 Bern",,3027,Bern,Bern,7.3953525,46.9467745
M-Migros,63640,Bex,"Rue Centrale 43-45, 1880 Bex",,1880,Bex,Vaud,7.0160811,46.2505878
M-Migros,123620,Biasca,"Via Generale Guisan 26, 6710 Biasca",,6710,Biasca,Ticino,8.9724688,46.3537097
M-Migros,33623,Biberist,"Hauptstrasse 21, 4562 Biberist",,4562,Biberist,Solothurn,7.561767,47.183104
MM-Migros,34480,Biel - Bielerhof,"Bahnhofstrasse 15, 2502 Biel/Bienne",,2502,Biel,Bern,7.244240899999999,47.1349616
M-Migros,33290,Biel - Bözingen,"Schlösslistrasse 7, 2504 Biel/Bienne",,2504,Biel,Bern,7.2673664,47.15201949999999
MM-Migros,34390,Biel - Madretsch,"Brüggstrasse 5, 2503 Biel/Bienne",,2503,Biel,Bern,7.2526299,47.1318268
MM-Migros,34260,Biel - Neumarkt,"Kanalgasse 36-38, 2502 Biel/Bienne",,2502,Biel,Bern,7.247539799999999,47.140721
M-Migros,33670,Biel Stadion,"Sportallee 20, 2504 Biel",,2504,Biel,Bern,10.0017516,53.6155336
MM-Migros,23740,Binningen - Gorenmatt,"Gorenmattstrasse 17, 4102 Binningen",,4102,Binningen,Basel-Stadt,7.573050499999999,47.5324799
M-Migros,24540,Binningen - Zentrum,"Hauptstrasse 71, 4102 Binningen",,4102,Binningen,Basel-Stadt,7.574175799999999,47.5413928
M-Migros,150189,Birmensdorf,"Zürcherstrasse 15, 8903 Birmensdorf ZH",,8903,Birmensdorf,Zürich,8.436797,47.3543231
MM-Migros,24440,Birsfelden,"Chrischonastrasse 2, 4127 Birsfelden",,4127,Birsfelden,Basel-Landschaft,7.624048399999999,47.5553655
M-Migros,90363,Bischofszell,"Steigstrasse 5, 9220 Bischofszell",,9220,Bischofszell,Zürich,9.244146899999999,47.49257249999999
Migros-Partner,137290,Bitsch,"Furkastrasse 88, 3982 Bitsch",,3982,Bitsch,Valais,8.1170689,46.3878469
Migros-Partner,63110,Bière,"Le Centre, 1145 Bière",,1145,Bière,Vaud,6.3339687,46.5373765
M-Migros,63730,Blonay,"Route du Village 37, 1807 Blonay",,1807,Blonay,Vaud,6.8952163,46.4652916
M-Migros,83820,Boudry,"Avenue du Collège 37, 2017 Boudry",,2017,Boudry,Neuchâtel,6.840777999999999,46.9509248
MM-Migros,24500,Breitenbach - Wydehof,"Laufenstrasse 4, 4226 Breitenbach",,4226,Breitenbach,Basel-Landschaft,7.542836299999999,47.4082502
MM-Migros,34263,Bremgarten AG,"Zufikerstrasse 2, 5620 Bremgarten AG",,5620,Bremgarten,Aargau,8.3497735,47.35223879999999
M-Migros,33750,Bremgarten Kalchacker,"Kalchackerstrasse 9, 3047 Bremgarten b. Bern",,3047,Bremgarten,Bern,7.4376392,46.9754099
M-Migros,33780,Brienz,"Hauptstrasse 51, 3855 Brienz BE",,3855,Brienz,Bern,8.0279113,46.7553273
MM-Migros,134540,Brig,"Belalpstrasse 1, 3900 Brig",,3900,Brig,Valais,7.989590199999999,46.3187305
M-Migros,90392,Bronschhofen,"Amp-Strasse 2, 9552 Bronschhofen",,9552,Bronschhofen,Thurgau,9.0323692,47.4808677
MMM-Migros,34843,Brugg - Neumarkt,"Neumarkt 1, 5200 Brugg AG",,5200,Brugg,Aargau,8.2091958,47.4821163
M-Migros,73750,Brunnen - Bahnhofsmärcht,"Bahnhofplatz 19, 6440 Brunnen",,6440,Brunnen,Solothurn,8.6088524,46.9999228
MMM-Migros,34730,Brügg - Centre Brügg,"Erlenstrasse 40, 2555 Brügg b. Biel",,2555,Brügg,Bern,7.267128400000001,47.1198111
MM-Migros,23790,Bubendorf,"Grüngenstrasse 1, 4416 Bubendorf",,4416,Bubendorf,Basel-Landschaft,7.742901799999999,47.4570236
M-Migros,73200,Buchrain - Tschannhof,"Unterdorfstrasse, 6033 Buchrain",,6033,Buchrain,Aargau,8.3487779,47.095469
MMM-Migros,34823,Buchs AG - Wynecenter,"Bresteneggstrasse 9b, 5033 Buchs AG",,5033,Buchs,Aargau,8.0888236,47.3844936
MM-Migros,90424,Buchs SG,"Churerstrasse 10, 9470 Buchs SG",,9470,Buchs,Zürich,9.4727375,47.1639433
M-Migros,73220,Buochs,"Ennetbürgerstrasse 45, 6374 Buochs",,6374,Buochs,Nidwalden,8.4155374,46.9777728
MM-Migros,34200,Burgdorf - Neumarkt,"Lyssachstrasse 27, 3400 Burgdorf",,3400,Burgdorf,Bern,7.6210778,47.0590812
MM-Migros,64330,Bussigny,"Rue de la Gare 2, 1030 Bussigny-Lausanne",,1030,Bussigny,Vaud,6.5530244,46.54753590000001
MM-Migros,150059,Bülach - Sonnenhof,"Bahnhofstrasse 28, 8180 Bülach",,8180,Bülach,Zürich,8.540004099999999,47.5211491
MMM-Migros,150203,Bülach Süd,"Feldstrasse 85, 8180 Bülach",,8180,Bülach,Zürich,8.5398055,47.5096554
MM-Migros,74310,Bürglen/Altdorf - Urnertor,"Gotthardstrasse 67, 6460 Altdorf UR",,6460,Altdorf,Uri,8.6513767,46.8727302
M-Migros,90373,Bütschwil,"Landstrasse 41, 9606 Bütschwil",,9606,Bütschwil,St. Gallen,9.0732008,47.3631945
M-Migros,123840,Campagna Adorna,"Via Campagna Adorna, 6850 Mendrisio",,6850,Mendrisio,Ticino,8.972436799999999,45.8628727
M-Migros,44090,Carouge,"Rue du Marché 16, 1227 Carouge GE",,1227,Carouge,Genève,6.1411054,46.1833862
M-Migros,44010,Carouge - Acacias,"Rue Gustave-Revilliod 4, 1227 Carouge GE",,1227,Carouge,Genève,6.1376403,46.1914249
MM-Migros,44950,Carouge - Vibert,"Avenue Vibert 29, 1227 Carouge GE",,1227,Carouge,Genève,6.134388,46.18244230000001
M-Migros,123880,Caslano,"Via Stazione 80, 6987 Caslano",,6987,Caslano,Ticino,8.8764402,45.9771965
MM-Migros,124290,Cassarate,"Viale Castagnola 21, 6900 Lugano",,6900,Lugano,Ticino,8.965552299999999,46.0064401
MM-Migros,84340,Centre la Tour,"Route de Pra-Riond 2, 1635 La Tour-de-Trême",,1635,La,Fribourg,7.0762323,46.6003638
MMM-Migros,124300,Centro Agno,"Via Lugano 21, 6982 Agno",,6982,Agno,Ticino,8.9057148,45.998836
MMM-Migros,125020,Centro S.Antonino,"Via Serrai 5, 6592 S. Antonino",,6592,S,Ticino,8.9617119,46.1539142
MM-Migros,83730,Cernier,"Rue Comble-Emine 5, 2053 Cernier",,2053,Cernier,Neuchâtel,6.9019444,47.0580556
M-Migros,73740,Cham - Neudorf,"Zugerstrasse 15/17, 6330 Cham",,6330,Cham,Luzern,8.461297,47.18240730000001
Migros-Partner,137235,Chamoson,"Chemin Neuf 2, 1955 Chamoson",,1955,Chamoson,Valais,7.223365500000001,46.2019632
M-Migros,83950,Charrière,"Rue de la Charrière 71, 2300 La Chaux-de-Fonds",,2300,La,Neuchâtel,6.8346993,47.1120674
M-Migros,64320,Chavannes - Renens,"Avenue du Tir-Fédéral 12, 1022 Chavannes-Renens",,1022,Chavannes,Vaud,6.576380200000001,46.5363981
M-Migros,63675,Chavannes les Cèdres,"Avenue de la Gare 84, 1022 Chavannes-près-Renens",,1022,Chavannes,Vaud,6.5726299,46.53007710000001
M-Migros,123640,Chiasso - Boffalora,"Via Bernardino Luini, 6830 Chiasso",,6830,Chiasso,Ticino,9.0239177,45.8379301
MM-Migros,90425,Chur - Calandapark,"Pargherastrasse 1-3, 7000 Chur",,7000,Chur,Graubünden,9.513721400000001,46.8461265
MM-Migros,90427,Chur - Gäuggeli,"Gäuggelistrasse 28, 7000 Chur",,7000,Chur,Graubünden,9.5274357,46.8519657
M-Migros,90334,Chur - Ringstrasse,"Ringstrasse 91, 7000 Chur",,7000,Chur,Graubünden,9.520960299999999,46.8577523
M-Migros,90389,Chur Masans,"Masanserstrasse 240, 7000 Chur",,7000,Chur,Graubünden,9.5345596,46.8713252
M-Migros,90384,Churwalden,"Hauptstrasse 146, 7075 Churwalden",,7075,Churwalden,Graubünden,9.5437795,46.7779744
MM-Migros,84330,Châtel-St-Denis,"Rte de Montreux 56, 1618 Châtel-St-Denis",,1618,Châtel,Fribourg,6.905133699999999,46.5241343
MM-Migros,44020,Chêne-Vert,"Place de la Gare 2, 1225 Chêne-Bourg",,1225,Chêne,Genève,6.1954946,46.1962178
M-Migros,63991,Clarens - Centre,"Rue du Léman 9, 1815 Clarens",,1815,Clarens,Vaud,6.8932376,46.4404128
MM-Migros,134520,Collombey,"Entre-deux-Fossaux, 1868 Collombey",,1868,Collombey,Valais,6.9569114,46.2661263
MM-Migros,44880,Collonge-Bellerive - Vésenaz,"Route de Thonon 55, 1245 Collonge-Bellerive",,1245,Collonge,Genève,6.1989809,46.2405653
M-Migros,83770,Colombier,"Avenue de la Gare 16, 2013 Colombier NE",,2013,Colombier,Neuchâtel,6.855218799999999,46.9664748
MMM-Migros,136411,Conthey - Forum des Alpes,"Route des Rottes 15, 1964 Conthey",,1964,Conthey,Valais,7.300943,46.223539
M-Migros,83780,Cormanon,"Rue du centre 4, 1752 Villars-sur-Glâne",,1752,Villars,Fribourg,7.1336463,46.79346400000001
M-Migros,83890,Cortaillod,"Chemin de Ronzi 2, 2016 Cortaillod",,2016,Cortaillod,Neuchâtel,6.8429552,46.9442965
M-Migros,63680,Cossonay,"Route des Chavannes 1, 1304 Cossonay-Ville",,1304,Cossonay,Vaud,6.5066383,46.6136661
M-Migros,83630,Courtepin,"Route de l'Industrie 25, 1784 Courtepin",,1784,Courtepin,Fribourg,7.1201468,46.8656091
Migros-Partner,137204,Crans,"Rue du Grand-Place 7, 3964 Crans-Montana",,3964,Crans,Valais,7.4678894,46.3064996
M-Migros,133920,Crans-Montana,"Route du Rawyl 32, 3963 Crans-Montana",,3963,Crans,Valais,7.473028299999999,46.3093669
MMM-Migros,65000,Crissier,"Chemin du Closalet 7, 1023 Crissier",,1023,Crissier,Vaud,6.5691301,46.55433499999999
M-Migros,123630,Crocifisso di Savosa,"Via San Gottardo 150, 6942 Savosa",,6942,Savosa,Ticino,8.941312199999999,46.0164975
M-Migros,63720,Cugy,"Route de Bottens 1, 1053 Cugy VD",,1053,Cugy,Vaud,6.6398774,46.5854124
M-Migros,73960,Dagmersellen,"Baselstrasse 7, 6252 Dagmersellen",,6252,Dagmersellen,Luzern,7.988489400000001,47.2131203
Daily,150362,Daily Zürich-Zollstrasse,"Zollstrasse 6, 8005 Zürich",,8005,Zürich,Zürich,8.5369492,47.3798176
MM-Migros,90432,Davos Symondpark,"Promenade 105, 7270 Davos Platz",,7270,Davos,Graubünden,9.8162434,46.7947955
M-Migros,90333,Davos-Dorf,"Promenade 146, 7260 Davos Dorf",,7260,Davos,Graubünden,9.8997731,46.7757476
M-Migros,90314,Degersheim,"Hauptstrasse 81, 9113 Degersheim",,9113,Degersheim,Zürich,9.1963359,47.3724131
MM-Migros,24320,Delémont,"Rue de la Maltière 12, 2800 Delémont",,2800,Delémont,Jura,7.346107499999999,47.3632735
M-Migros,33773,Derendingen,"Hauptstrasse 22, 4552 Derendingen",,4552,Derendingen,Solothurn,7.5838776,47.1973593
MM-Migros,150149,Dielsdorf,"Ruchwiesenstrasse 2, 8157 Dielsdorf",,8157,Dielsdorf,Zürich,8.464537,47.4805972
M-Migros,90327,Diepoldsau,"Hintere Kirchstrasse 1, 9444 Diepoldsau",,9444,Diepoldsau,Zürich,9.656215999999999,47.38573090000001
M-Migros,93620,Diessenhofen,"Bahnhofstrasse 15, 8253 Diessenhofen",,8253,Diessenhofen,Zürich,8.7522015,47.6860018
M-Migros,150130,Dietikon - Limmatfeld,"Überlandstrasse 22, 8953 Dietikon",,8953,Dietikon,Zürich,8.4050919,47.4091846
MM-Migros,150065,Dietikon - Löwenzentrum,"Löwenstrasse 28, 8953 Dietikon",,8953,Dietikon,Zürich,8.4021644,47.4050615
MM-Migros,150307,Dietikon Silbern,"Riedstrasse 3, 8953 Dietikon",,8953,Dietikon,Zürich,8.393833599999999,47.4200148
M-Migros,150169,Dietlikon - Brunnenwiese,"Pappelstrasse 2, 8305 Dietlikon",Geschlossen,8305,Dietlikon,Zürich,8.621573399999999,47.4192148
M-Migros,90381,Domat-Ems,"Via La Val 1, 7013 Domat/Ems",,7013,Domat,Graubünden,9.4653662,46.8374898
M-Migros,83940,Domdidier,"Grand-Rhain 54, 1564 Domdidier",,1564,Domdidier,Fribourg,7.009378700000001,46.8653808
M-Migros,23620,Dornach,"Wollmattweg 7, 4143 Dornach",,4143,Dornach,Basel-Landschaft,7.611779899999999,47.4882089
M-Migros,93870,Dättnau,"Ziegeleiplatz 2, 8406 Dättnau",,8406,Dättnau,Zürich,8.6993628,47.4773023
M-Migros,33743,Döttingen,"Hauptstrasse 17, 5312 Döttingen",,5312,Döttingen,Aargau,8.2284268,47.57653579999999
MM-Migros,150054,Dübendorf,"Unterdorfstrasse 7, 8600 Dübendorf",,8600,Dübendorf,Zürich,8.617610899999999,47.3982642
Migros Fachmarkt,150148,Dübendorf - Hochbord Nord,"Neugutstrasse 83, 8600 Dübendorf",,8600,Dübendorf,Zürich,8.6034625,47.4014347
M-Migros,150082,Dübendorf Stettbach,"Am Stadtrand 5, 8600 Dübendorf",,8600,Dübendorf,Zürich,8.5969961,47.396978
MM-Migros,84320,Düdingen,"Käsereistrasse 3, 3186 Düdingen",,3186,Düdingen,Bern,7.191617699999999,46.8470441
MM-Migros,74300,Ebikon - Ladengasse,"Zentralstrasse 16, 6030 Ebikon",,6030,Ebikon,Aargau,8.3408153,47.0809819
MMM-Migros,74400,Ebikon - Mall of Switzerland,"Ebisquare-Strasse 1, 6030 Ebikon",,6030,Ebikon,Aargau,8.357506500000001,47.0935816
M-Migros,150170,Ebmatingen,"Zürichstrasse 108, 8123 Ebmatingen",,8123,Ebmatingen,Zürich,8.643211599999999,47.350869
M-Migros,90368,Ebnat-Kappel,"Kapplerstrasse 16, 9642 Ebnat-Kappel",,9642,Ebnat,St. Gallen,9.1074422,47.2760513
MM-Migros,63620,Echallens,"Rue de Praz-Palud 2, 1040 Echallens",,1040,Echallens,Vaud,6.6357975,46.638967
MM-Migros,63690,Ecublens - Croset,"chemin du Croset 7, 1024 Ecublens",,1024,Ecublens,Vaud,6.56442,46.5340101
M-Migros,63910,Ecublens - EPFL,"Louis Favre 8A, 1024 Ecublens VD",,1024,Ecublens,Vaud,6.565703,46.5229627
MM-Migros,94290,Effretikon - Effi-Märt,"Märtplatz 5, 8307 Effretikon",,8307,Effretikon,Zürich,8.6849426,47.4288561
MM-Migros,34413,Egerkingen - Gäupark,"Hausimollstrasse 1, 4622 Egerkingen",,4622,Egerkingen,Solothurn,7.8019051,47.3178558
MM-Migros,150074,Egg,"Gewerbestrasse 2-10, 8132 Egg",,8132,Egg,Zürich,8.6913103,47.3026244
M-Migros,150078,Eglisau-Nord,"Bauelenzelgstrasse 16, 8193 Eglisau",,8193,Eglisau,Zürich,8.5129016,47.580353
M-Migros,73870,Egolzwil - Schötz,"Grossmatt 1, 6243 Egolzwil",,6243,Egolzwil,Luzern,7.9841065,47.1828404
MM-Migros,150068,Einsiedeln,"Eisenbahnstrasse 2, 8840 Einsiedeln",,8840,Einsiedeln,Schwyz,8.7460364,47.1287165
M-Migros,93840,Elgg,"St. Gallerstrasse 16, 8353 Elgg",,8353,Elgg,Zürich,8.861620499999999,47.49832319999999
MM-Migros,94320,Embrach,"Bülacherstrasse 17, 8424 Embrach",,8424,Embrach,Zürich,8.591849999999999,47.5101605
M-Migros,73680,Emmen - Kapf,"Kapfstrasse 3, 6020 Emmenbrücke",,6020,Emmenbrücke,Aargau,8.2737122,47.0896964
MM-Migros,74390,Emmen - Wohncenter,"Seetalstrasse 50, 6020 Emmenbrücke",,6020,Emmenbrücke,Aargau,8.2927271,47.0744868
MM-Migros,74350,Emmenbrücke - Sonnenplatz,"Sonnenplatz 1, 6020 Emmenbrücke",,6020,Emmenbrücke,Aargau,8.2752688,47.0779516
M-Migros,73890,Engelberg,"Klosterstrasse 5, 6390 Engelberg",,6390,Engelberg,Luzern,8.405717,46.820706
MM-Migros,63940,Epalinges,"Place de la Croix-Blanche 11, 1066 Epalinges",,1066,Epalinges,Vaud,6.670927,46.548481
Migros-Partner,137244,Erde,"Scex-Riond / CP 48, 1976 Erde",,1976,Erde,Valais,7.292589899999999,46.23790409999999
M-Migros,150185,Erlenbach - Erlibacher Märt,"Bahnhofstrasse 42, 8703 Erlenbach ZH",,8703,Erlenbach,Zürich,8.590430999999999,47.3070228
M-Migros,33123,Erlinsbach,"Zentrum Rössli, 5018 Erlinsbach AG",,5018,Erlinsbach,Aargau,8.0082722,47.4057159
M-Migros,73180,Erstfeld,"Gotthardstrasse 144, 6472 Erstfeld",,6472,Erstfeld,Uri,8.650065999999999,46.825152
Migros-Partner,90725,Eschen,"Essanestrasse 42, 9492 Eschen",,9492,Eschen,Zürich,9.525884999999999,47.208946
M-Migros,150160,Eschenbach,"Rickenstrasse 12, 8733 Eschenbach",,8733,Eschenbach,Zürich,8.9240392,47.2409518
MM-Migros,63630,Estavayer-le-Lac,"Route de la Chapelle 24, 1470 Estavayer-le-Lac",,1470,Estavayer,Fribourg,6.851435899999999,46.8481276
M-Migros,63900,Etoy,"Route Suisse 26, 1163 Etoy",,1163,Etoy,Vaud,6.4259398,46.47363379999999
MM-Migros,24610,Ettingen,"Therwilerstrasse 9, 4107 Ettingen",,4107,Ettingen,Basel-Landschaft,7.547403900000001,47.4849438
Migros-Partner,90718,FL - Balzers,"Landstrasse 20, 9496 Balzers",,9496,Balzers,Zürich,9.5121868,47.0752919
Migros-Partner,90724,FL - Ruggell,"Landstrasse 33, 9491 Ruggell",,9491,Ruggell,Zürich,9.5234668,47.2392642
M-Migros,33903,Fahrwangen,"Hintergasse 12, 5615 Fahrwangen",,5615,Fahrwangen,Aargau,8.2438793,47.294263
M-Migros,123700,Faido,"Via Pian della Croce, 6760 Faido",,6760,Faido,Ticino,8.8002652,46.4778814
M-Migros,93800,Fehraltorf,"Grundstrasse 4, 8320 Fehraltorf",,8320,Fehraltorf,Zürich,8.7556165,47.3866862
M-Migros,136465,Fiesch,"Furkastrasse 46, 3984 Fiesch",,3984,Fiesch,Valais,8.135566899999999,46.4040003
M-Migros,33843,Fislisbach,"Badenerstrasse 7d, 5442 Fislisbach",,5442,Fislisbach,Aargau,8.2897316,47.4361177
M-Migros,84350,Flamatt,"Bernstrasse 36, 3175 Flamatt",,3175,Flamatt,Bern,7.3191353,46.8896931
MM-Migros,90431,Flawil,"Magdenauerstrasse 10, 9230 Flawil",,9230,Flawil,Zürich,9.1861496,47.4128303
MM-Migros,83700,Fleurier,"Grand-Rue 27, 2114 Fleurier",,2114,Fleurier,Neuchâtel,6.5805979,46.9018813
M-Migros,90325,Flums,"Lochrietstrasse 27, 8890 Flums",,8890,Flums,Zürich,9.3534814,47.0981242
M-Migros,93600,Frauenfeld - Multiplex,"Langfeldstrasse 53a, 8500 Frauenfeld",,8500,Frauenfeld,Zürich,8.90503,47.565592
MM-Migros,94330,Frauenfeld - Passage,"Bahnhofplatz 72, 8500 Frauenfeld",,8500,Frauenfeld,Zürich,8.896273599999999,47.5572283
M-Migros,93640,Frauenfeld - Zeughausstrasse,"Zürcherstrasse 227, 8500 Frauenfeld",,8500,Frauenfeld,Zürich,8.9009743,47.5596816
M-Migros,33753,Frick,"Hauptstrasse 44, 5070 Frick",,5070,Frick,Aargau,8.0195359,47.5079295
M-Migros,33370,Frutigen,"Kanderstegstrasse 31, 3714 Frutigen",,3714,Frutigen,Bern,7.648425700000001,46.5855778
M-Migros,133710,Fully,"Rue de Provence 4, 1926 Fully",,1926,Fully,Valais,2.3416739,48.8741725
M-Migros,150153,Fällanden,"Unterdorfstrasse 2, 8117 Fällanden",,8117,Fällanden,Zürich,8.641097499999999,47.3736129
MM-Migros,24480,Füllinsdorf - Schönthal,"Ergolzstrasse 2, 4414 Füllinsdorf",,4414,Füllinsdorf,Basel-Landschaft,7.725253899999999,47.5027803
M-Migros,83980,Gare Fribourg,"Rue Louis-d'Affry 2, 1701 Fribourg",,1701,Fribourg,Fribourg,7.1501989,46.8036885
M-Migros,83871,Gare de Bulle,"Place de la Gare, 1630 Bulle",,1630,Bulle,Fribourg,7.0540501,46.619673
M-Migros,44340,Gd Saconnex - Le Pommier,"Rue Sonnex 20, 1218 Le Grand-Saconnex",,1218,Le,Genève,6.1198016,46.2289525
M-Migros,33393,Gebenstorf,"Wambisterstrasse, 5412 Gebenstorf",,5412,Gebenstorf,Aargau,8.2448256,47.4899937
MM-Migros,24460,Gelterkinden,"Badweg 2, 4460 Gelterkinden",,4460,Gelterkinden,Basel-Landschaft,7.8506119,47.4659608
MMM-Migros,44030,Genève - Balexert,"Avenue Louis-Casaï 27, 1211 Genève 28",,1211,Genève,Genève,6.115013299999999,46.2179335
MM-Migros,44110,Genève - Champel,"Avenue de Champel 61, 1206 Genève",Geschlossen,1206,Genève,Genève,6.1525,46.1908333
MM-Migros,44140,Genève - Charmilles,"Promenade de l'Europe 11, 1203 Genève",,1203,Genève,Genève,6.1244964,46.2083403
M-Migros,44060,Genève - Cointrin Aéroport,"Route de l'Aéroport 25, 1215 Genève 15 Aéroport",,1215,Genève,Genève,6.1154265,46.2356529
M-Migros,44180,Genève - Cornavin Gare,"Place de Cornavin 3-7, 1201 Genève",,1201,Genève,Genève,6.143300600000001,46.21078199999999
MM-Migros,44250,Genève - Eaux-Vives,"Rue des Eaux-Vives 17-19, 1207 Genève",,1207,Genève,Genève,6.157697199999999,46.2038354
M-Migros,44290,Genève - Fusterie M-Express,"Place de la Fusterie 7, 1204 Genève",,1204,Genève,Genève,6.146198999999999,46.203928
MM-Migros,44350,Genève - Jonction,"Boulevard Carl-Vogt 6, 1205 Genève",,1205,Genève,Genève,6.130622,46.20078900000001
MM-Migros,44450,Genève - Les Cygnes,"Rue de Lausanne 18-20, 1201 Genève",,1201,Genève,Genève,6.144636999999999,46.2112558
MM-Migros,44430,Genève - Navigation,"Rue des Paquis 41, 1201 Genève",,1201,Genève,Genève,6.149683,46.2123628
MM-Migros,44230,Genève - Plainpalais,"Rue de Carouge 64, 1205 Genève",,1205,Genève,Genève,6.1428031,46.1928795
MM-Migros,44730,Genève - Rieu,"Route de Florissant 86, 1206 Genève",,1206,Genève,Genève,6.164036500000001,46.1919901
M-Migros,44840,Genève - Tourelle,"Chemin de la Tourelle 2-4, 1209 Genève",,1209,Genève,Genève,6.1262228,46.2245134
M-Migros,44890,Genève - Vidollet,"Rue du Vidollet 5, 1202 Genève",,1202,Genève,Genève,6.1395987,46.2163274
MM-Migros,44900,Genève - Villereuse,"Rue de la Terrassière 29, 1207 Genève",,1207,Genève,Genève,6.1589277,46.2007406
M-Migros,33643,Gerlafingen,"Friedhofstrasse 1, 4563 Gerlafingen",,4563,Gerlafingen,Solothurn,7.574156200000001,47.1709012
M-Migros,123740,Giubiasco - Alle Bolle,"Via Bellinzona 33, 6512 Giubiasco",,6512,Giubiasco,Ticino,9.0138786,46.1784152
M-Migros,44300,Gland,"Rue de Mauverney 22, 1196 Gland",,1196,Gland,Vaud,6.2760339,46.4171065
MM-Migros,150064,Glarus - Zentrum Glärnisch,"Schweizerhofstrasse 6, 8750 Glarus",,8750,Glarus,Zürich,9.0709422,47.0405467
M-Migros,150056,Glattbrugg,"Wallisellerstrasse 8, 8152 Glattbrugg",,8152,Glattbrugg,Zürich,8.5677252,47.43425310000001
MMM-Migros,136401,Glis - Simplon,"Kantonsstrasse 58, 3902 Glis",,3902,Glis,Valais,7.9693461,46.3089003
M-Migros,90375,Goldach,"Ulrich-Rösch-Strasse 5, 9403 Goldach",,9403,Goldach,Zürich,9.467775399999999,47.4747401
M-Migros,73790,Goldau,"Parkstrasse 25, 6410 Goldau",,6410,Goldau,Schwyz,8.551331099999999,47.0509981
MM-Migros,90433,Gossau,"St. Gallerstrasse 115, 9200 Gossau SG",,9200,Gossau,Zürich,9.2564672,47.417829
M-Migros,90313,Gossau - Stadtbühlpark,"Stadtbühlstrasse 12, 9200 Gossau SG",,9200,Gossau,Zürich,9.2503601,47.4122665
M-Migros,150182,Gossau ZH,"Im Zentrum 3, 8625 Gossau ZH",,8625,Gossau,Zürich,8.757840999999999,47.3068724
Migros-Partner,90736,Grabs,"Staatsstrasse 89, 9472 Grabs",,9472,Grabs,Zürich,9.4474441,47.1803303
M-Migros,44360,Gradelle,"Chemin de la Gradelle 10, 1224 Chêne-Bougeries",,1224,Chêne,Genève,6.1819466,46.2053517
M-Migros,123790,Grancia,"Via Cantonale 28, 6916 Grancia",,6916,Grancia,Ticino,8.9262944,45.9706231
MM-Migros,44550,Grand-Lancy - Palettes,"Av. des Communes-Réunies 52, 1212 Grand-Lancy",,1212,Grand,Genève,6.122196600000001,46.1750984
M-Migros,83760,Grande Béroche,"Rue de Combamare 21, 2025 Chez-Le-Bart",,2025,Chez,Neuchâtel,6.7840937,46.8997167
M-Migros,83860,Granges - Paccot,"Route d'Englisberg 15b, 1763 Granges-Paccot",,1763,Granges,Fribourg,7.1469666,46.8288762
M-Migros,150156,Greifensee,"Meierwis, 8606 Greifensee",,8606,Greifensee,Zürich,8.680069099999999,47.3677705
MM-Migros,34803,Grenchen,"Freiestrasse 10, 2540 Grenchen",,2540,Grenchen,Solothurn,7.3988133,47.189823
MMM-Migros,84270,Gruyère-Centre,"Rue Château d'En-Bas 2, 1630 Bulle",,1630,Bulle,Fribourg,7.0571047,46.6237682
M-Migros,33953,Gränichen,"Lindenplatz 2, 5722 Gränichen",,5722,Gränichen,Aargau,8.0978877,47.360079
MM-Migros,34490,Gstaad,"Untergstaadstrasse 3, 3780 Gstaad",,3780,Gstaad,Bern,7.282444399999999,46.4782127
M-Migros,33091,Gümligen,"Turbenweg 1, 3073 Gümligen",,3073,Gümligen,Bern,7.504227599999999,46.9332437
M-Migros,33360,Hasle Rüegsau,"Emmenau 3, 3415 Hasle-Rüegsau",,3415,Hasle,Bern,7.659646,47.0133606
M-Migros,134250,Haute-Nendaz,"Lake Placid, rte des Ecluses 23, 1997 Haute-Nendaz",,1997,Haute,Valais,7.292200299999999,46.1819875
M-Migros,90317,Heiden,"Sonnentalstrasse 2, 9410 Heiden",,9410,Heiden,Zürich,9.5362127,47.4389092
M-Migros,33920,Heimberg,"Bernstrasse 223, 3627 Heimberg",,3627,Heimberg,Bern,7.6096897,46.782153
MM-Migros,90436,Herisau,"Gartenstrasse 2, 9100 Herisau",,9100,Herisau,Zürich,9.2839133,47.3864974
M-Migros,90318,Herisau - Alpsteinstrasse,"Alpsteinstrasse 8b, 9100 Herisau",,9100,Herisau,Zürich,9.2788133,47.3787223
MM-Migros,34290,Herzogenbuchsee,"Bernstrasse 33, 3360 Herzogenbuchsee",,3360,Herzogenbuchsee,Bern,7.703737199999999,47.18655769999999
M-Migros,34520,Hilterfingen,"Staatsstrasse 16b, 3652 Hilterfingen",,3652,Hilterfingen,Bern,7.6585091,46.7353812
MM-Migros,34380,Hinterkappelen - Chappelemärit,"Kappelenring 2, 3032 Hinterkappelen",,3032,Hinterkappelen,Bern,7.376618499999999,46.96679719999999
MM-Migros,93650,Hinwil,"Bachtelstrasse 16, 8340 Hinwil",,8340,Hinwil,Zürich,8.8446448,47.3003155
M-Migros,93850,Hittnau,"Jakob Stutz-Strasse 75, 8335 Hittnau",,8335,Hittnau,Zürich,8.825415399999999,47.3631584
M-Migros,73880,Hitzkirch,"Richensee 2, 6285 Hitzkirch",,6285,Hitzkirch,Luzern,8.2518859,47.2222081
MM-Migros,74340,Hochdorf - Seetal-Center,"Hauptstrasse 5, 6280 Hochdorf",,6280,Hochdorf,Luzern,8.2913828,47.1660917
M-Migros,150181,Hombrechtikon,"Rütistrasse 16, 8634 Hombrechtikon",,8634,Hombrechtikon,Zürich,8.7695935,47.25190689999999
MM-Migros,150055,Horgen - Schinzenhof,"Alte Landstrasse 24, 8810 Horgen",,8810,Horgen,Zürich,8.5975223,47.2604495
M-Migros,90352,Horn,"Seestrasse 119, 9326 Horn",,9326,Horn,Zürich,9.4532249,47.4971511
M-Migros,73800,Horw,"Gemeindehausplatz 14+15, 6048 Horw",,6048,Horw,Lucerne,8.3090283,47.0189969
MM-Migros,34400,Huttwil,"Bernstrasse 6, 4950 Huttwil",,4950,Huttwil,Bern,7.840236,47.1136457
MM-Migros,84210,Hôpital,"Rue de l'Hôpital 12, 2000 Neuchâtel",,2000,Neuchâtel,Neuchâtel,6.929815,46.99198699999999
M-Migros,73940,Hünenberg Dorf,"Maihölzli 5, 6331 Hünenberg",,6331,Hünenberg,Luzern,8.427283899999999,47.17510859999999
M-Migros,33280,Hünibach,"Staatsstrasse 134, 3626 Hünibach",,3626,Hünibach,Bern,7.645371799999999,46.7451639
MMM-Migros,74370,Ibach-Schwyz - Mythen-Center,"Mythen-Centerstr. 18, 6438 Ibach",,6438,Ibach,Valais,8.645852999999999,47.01541109999999
MM-Migros,90467,Ilanz - Center Marcau,"Poststrasse 4, 7130 Ilanz",,7130,Ilanz,Graubünden,9.2076595,46.774644
MM-Migros,34300,Interlaken,"Rugenparkstrasse 1, 3800 Interlaken",,3800,Interlaken,Bern,7.851885900000001,46.6813497
M-Migros,33270,Ipsach,"Dorfstrasse 1, 2563 Ipsach",,2563,Ipsach,Bern,7.235048000000001,47.1157212
MM-Migros,34510,Ittigen,"Talweg 6, 3063 Ittigen",,3063,Ittigen,Bern,7.485090599999999,46.9742036
M-Migros,150178,Jona - Stadttor,"Molkereistrasse 5, 8645 Jona",,8645,Jona,Zürich,8.837396,47.231463
Migros-Partner,150893,Kaltbrunn,"Uznacherstrasse 1, 8722 Kaltbrunn",,8722,Kaltbrunn,Zürich,9.0242369,47.2131487
M-Migros,83800,Kerzers,"Murtenstrasse 15, 3210 Kerzers",,3210,Kerzers,Fribourg,7.194056499999999,46.9734612
MM-Migros,33770,Kirchberg,"Solothurnstrasse 17a, 3422 Kirchberg BE",,3422,Kirchberg,Bern,7.5811429,47.0887436
M-Migros,90378,Kirchberg-Stelz,"Wilerstrasse 204, 9533 Kirchberg SG",,9533,Kirchberg,St. Gallen,9.0568103,47.4390012
MM-Migros,150067,Kloten,"Kirchgasse 5, 8302 Kloten",,8302,Kloten,Zürich,8.5816248,47.4509009
M-Migros,93860,Kollbrunn,"Tösstalstrasse 24, 8483 Kollbrunn",,8483,Kollbrunn,Zürich,8.769954,47.4579013
MM-Migros,34190,Konolfingen,"Thunstrasse 17, 3510 Konolfingen",,3510,Konolfingen,Bern,7.621020399999999,46.8764118
M-Migros,90349,Kreuzlingen,"Hauptstrasse 63, 8280 Kreuzlingen",,8280,Kreuzlingen,Zürich,9.1754696,47.6478869
MM-Migros,90440,Kreuzlingen - Seepark,"Bleichestrasse 15, 8280 Kreuzlingen",,8280,Kreuzlingen,Zürich,9.1957228,47.6422351
MM-Migros,74360,Kriens - Hofmatt,"Luzernerstrasse 30, 6010 Kriens",,6010,Kriens,Aargau,8.2828503,47.0338143
M-Migros,73980,Kriens - Mattenhof,"Am Mattenhof 2, 6010 Kriens",,6010,Kriens,Aargau,8.300860199999999,47.0275961
MM-Migros,34240,Köniz - Bläuacker,"Bläuacker 10, 3098 Köniz",,3098,Köniz,Bern,7.4144043,46.9234636
M-Migros,150157,Küsnacht ZH,"Zürichstrasse 149, 8700 Küsnacht ZH",,8700,Küsnacht,Zürich,8.5819759,47.3185158
MM-Migros,73720,Küssnacht - Rigimärt,"Siegwartstrasse 11, 6403 Küssnacht am Rigi",,6403,Küssnacht,Luzern,8.441486099999999,47.083948
M-Migros,83750,La Neuveville,"Chemin des Vergers 20, 2520 La Neuveville",,2520,La,Bern,7.088373199999999,47.0617573
M-Migros,83840,La Roche,"Haut de Scherwil 2, 1634 La Roche",,1634,La,Fribourg,7.141300299999999,46.698191
M-Migros,63950,La Tour-de-Peilz,"Place des Anciens-Fossés 10B, 1814 La Tour-de-Peilz",,1814,La,Vaud,6.8574724,46.4526496
M-Migros,83970,La Tour-de-Trême Tivoli,"Rue de l'Ancien Comté 17b, 1635 La Tour-de-Trême",,1635,La,Fribourg,7.0633925,46.6106241
M-Migros,63850,La Vallée,"Rue de la Gare 7, 1347 Le Sentier",,1347,Le,Vaud,6.230555600000001,46.6058333
MM-Migros,150073,Lachen,"Feldstrasse 6, 8853 Lachen",,8853,Lachen,Schwyz,8.855888,47.1915957
MM-Migros,44530,Lancy-Onex,"Rue des Bossons 78-80, 1213 Petit-Lancy",,1213,Petit,Genève,6.1105979,46.1887414
MM-Migros,90428,Landquart,"Bahnhofstrasse 54, 7302 Landquart",,7302,Landquart,Graubünden,9.561741099999999,46.9678955
MMM-Migros,34813,Langendorf - Ladedorf,"Fabrikstrasse 6, 4513 Langendorf",,4513,Langendorf,Solothurn,7.5114806,47.2184571
MM-Migros,34310,Langenthal,"Wiesenstrasse 28, 4900 Langenthal",,4900,Langenthal,Bern,7.7841441,47.2144627
M-Migros,150168,Langnau a. A.,"Hintere Grundstrasse 2, 8135 Langnau am Albis",,8135,Langnau,Zürich,8.537825699999999,47.2913472
MM-Migros,34460,Langnau i.E.,"Schlossstrasse 1a, 3550 Langnau i. E.",,3550,Langnau,Bern,7.7877383,46.9397291
MM-Migros,23230,Laufen - Birscenter,"Bahnhofstrasse 4, 4242 Laufen",,4242,Laufen,Basel-Landschaft,7.501749999999999,47.4201067
M-Migros,63880,Lausanne - Bellevaux,"Route Aloys-Fauquez 97, 1018 Lausanne",,1018,Lausanne,Vaud,6.633465300000001,46.5375994
MM-Migros,64570,Lausanne - Bergières,"Avenue des Bergières 50, 1004 Lausanne",,1004,Lausanne,Vaud,6.618674,46.531266
MM-Migros,64520,Lausanne - Chailly,"Avenue de la Vallonnette 2, 1012 Lausanne",,1012,Lausanne,Vaud,6.651666700000001,46.5272222
MM-Migros,64580,Lausanne - Closelet,"Avenue d'Ouchy 11, 1006 Lausanne",,1006,Lausanne,Vaud,6.6327767,46.51472709999999
M-Migros,63660,Lausanne - Cour,"Avenue de Cour 36, 1007 Lausanne",,1007,Lausanne,Vaud,6.6177823,46.5155569
M-Migros,63895,Lausanne - Flon Europe,"Place de l'Europe 8, 1003 Lausanne",,1003,Lausanne,Vaud,6.6298189,46.5207492
M-Migros,63865,Lausanne - La Borde,"Rue de la Borde 3B, 1018 Lausanne",,1018,Lausanne,Vaud,6.6330705,46.5272276
M-Migros,63710,Lausanne - La Harpe,"Avenue de la Harpe 17, 1007 Lausanne",,1007,Lausanne,Vaud,6.6259505,46.5124098
M-Migros,64340,Lausanne - La Sallaz,"Route de Berne 1, 1010 Lausanne",,1010,Lausanne,Vaud,6.6467845,46.5329338
MMM-Migros,64970,Lausanne - Métropole,"Rue des Terreaux 25, 1003 Lausanne",,1003,Lausanne,Vaud,6.6275001,46.5224901
M-Migros,63970,Lausanne - Saint-Paul,"Avenue d'Echallens 63, 1004 Lausanne",,1004,Lausanne,Vaud,6.6161805,46.5278499
M-Migros,63770,Lausanne - Sévelin,"Av. de Sévelin 2 Ab, 1007 Lausanne",,1007,Lausanne,Vaud,6.6161869,46.52160079999999
M-Migros,133760,Le Bouveret,"En Bellossy, 1897 Bouveret",,1897,Bouveret,Valais,6.860267700000001,46.3778942
Migros-Partner,137225,Le Châble,"Route de Verbier 15, 1934 Le Châble VS",,1934,Le,Valais,7.213269699999999,46.08127409999999
M-Migros,83880,Le Landeron,"Route de Neuchâtel 40, 2525 Le Landeron",,2525,Le,Neuchâtel,7.060724899999999,47.05640080000001
M-Migros,44370,Le Lignon,"Place du Lignon 29 A, 1219 Le Lignon",,1219,Le,Genève,6.096945799999999,46.2037339
MM-Migros,84280,Le Locle,"Rue Bournot 35, 2400 Le Locle",Geschlossen,2400,Le,Neuchâtel,6.7475837,47.0562339
MM-Migros,34243,Lenzburg,"Bachstrasse 15, 5600 Lenzburg",,5600,Lenzburg,Aargau,8.1771903,47.3874977
M-Migros,83930,Les Cadolles,"Rue du Plan 28, 2000 Neuchâtel",,2000,Neuchâtel,Neuchâtel,6.9250696,46.99867090000001
MM-Migros,84310,Les Eplatures,"Charles Naine 44, 2300 La Chaux-de-Fonds",,2300,La,Neuchâtel,6.8030468,47.0900296
Migros-Partner,137220,Leuk,"Konsumgenossenschaft, 3953 Leuk Stadt",,3953,Leuk,Valais,7.612349,46.3352558
M-Migros,134230,Leukerbad,"Kantonstrasse, 3954 Leukerbad",,3954,Leukerbad,Valais,7.626352300000001,46.378972
Migros-Partner,137285,Leytron,"Giro Union, 1912 Leytron",,1912,Leytron,Valais,7.205991099999999,46.188345
MM-Migros,23080,Liestal,"Kasernenstrasse 8, 4410 Liestal",,4410,Liestal,Basel-Landschaft,7.735968199999999,47.4825871
MM-Migros,124240,Locarno,"Via Stefano Franscini 31, 6600 Locarno",,6600,Locarno,Ticino,8.7958879,46.1657028
M-Migros,123730,Locarno - Solduno,"Via A. Franzoni 43, 6604 Locarno",,6604,Locarno,Ticino,8.782362,46.1684227
Migros Fachmarkt,126580,Losone,"Via dei Pioppi 2A, 6616 Losone",,6616,Losone,Ticino,8.77207,46.1667842
M-Migros,33233,Lostorf,"Hauptstrasse 20, 4654 Lostorf",,4654,Lostorf,Solothurn,7.947779700000001,47.382906
MMM-Migros,125010,Lugano - Città,"Via Pretorio 15, 6900 Lugano",,6900,Lugano,Ticino,8.9521917,46.0072667
M-Migros,123710,Lugano - Molino Nuovo,"Via Monte Boglia 5, 6900 Lugano",,6900,Lugano,Ticino,8.958645599999999,46.0181406
M-Migros,123660,Lugano - Paradiso,"Via Geretta, 6902 Lugano",,6902,Lugano,Ticino,8.9436231,45.9912388
M-Migros,33813,Lupfig,"Flachsacherstrasse 17, 5242 Lupfig",,5242,Lupfig,Aargau,8.2081947,47.44005970000001
M-Migros,63835,Lutry – La Conversion,"Route de la Conversion 314, 1093 La Conversion",,1093,La,Vaud,6.6769263,46.5133792
M-Migros,73840,Luzern - Allmend,"Zihlmattweg 46, 6005 Luzern",,6005,Luzern,Aargau,8.3045821,47.0313725
M-Migros,73230,Luzern - Bahnhof,"Zentralstrasse 1, 6003 Luzern",,6003,Luzern,Aargau,8.3102638,47.0501744
Daily,73150,Luzern - Bahnhof Daily,"Zentralstrasse 7, 6003 Luzern",,6003,Luzern,Aargau,8.309627299999999,47.049483
M-Migros,73770,Luzern - Bruchstrasse,"Bruchstrasse 18, 6003 Luzern",,6003,Luzern,Aargau,8.2991856,47.05051539999999
M-Migros,73670,Luzern - Brüelstrasse,"Kreuzbuchstrasse 53, 6006 Luzern",,6006,Luzern,Aargau,8.339967699999999,47.0544319
M-Migros,73930,Luzern - Grossmatte,"Luzernerstrasse 143, 6014 Luzern",,6014,Luzern,Aargau,8.2620816,47.0490708
M-Migros,73140,Luzern - Schlossberg,"Friedentalstrasse 6, 6004 Luzern",,6004,Luzern,Aargau,8.3077733,47.0612711
MM-Migros,74380,Luzern - Schweizerhof,"Hertensteinstrasse 9, 6004 Luzern",,6004,Luzern,Aargau,8.3096768,47.054745
MM-Migros,74260,Luzern - Schönbühl,"Langensandstr. 23, 6005 Luzern",,6005,Luzern,Aargau,8.327643199999999,47.0372928
M-Migros,73690,Luzern - Waldstätter,"Winkelriedstrasse 58, 6003 Luzern",,6003,Luzern,Aargau,8.3072655,47.0461492
M-Migros,73270,Luzern - Würzenbachstrasse,"Würzenbachstrasse 19, 6006 Luzern",,6006,Luzern,Aargau,8.343715699999999,47.0550868
MM-Migros,34420,Lyss Lyssbachpark,"Steinweg 28, 3250 Lyss",,3250,Lyss,Bern,7.3042599,47.0784931
M-Migros,44600,M-Express Pont-Rouge,"Esplanade de Pont-Rouge 2, 1212 Grand-Lancy",,1212,Grand,Genève,6.1274789,46.1872348
Migros-Partner,63122,MP La Sarraz,"Chemin des Prés-Morés 2, 1315 La Sarraz",,1315,La,Vaud,6.5087597,46.6543842
Migros-Partner,63132,MP Ouchy,"Avenue de Rhodanie 2, 1007 Lausanne",,1007,Lausanne,Vaud,6.624861699999999,46.50792389999999
M-Migros,123820,Maggia,"Via Cantonale, 6673 Maggia",,6673,Maggia,Ticino,8.705388800000001,46.2455766
M-Migros,73950,Malters,"Weihermatte 7a/7b, 6102 Malters",,6102,Malters,Luzern,8.180259699999999,47.0375106
M-Migros,84240,Marché FR,"Rue St-Pierre 2, 1700 Fribourg",,1700,Fribourg,Fribourg,7.154414,46.803415
MMM-Migros,84721,Marin Centre,"Rue Fleur-de-Lys 26, 2074 Marin-Epagnier",,2074,Marin,Neuchâtel,7.007772,47.011913
MM-Migros,83650,Marly,"Route des Pralettes 1, 1723 Marly",,1723,Marly,Fribourg,7.161238,46.776154
MMM-Migros,134550,Martigny - Manoir,"Rue du Manoir 1, 1920 Martigny",,1920,Martigny,Valais,7.071951599999999,46.1013023
M-Migros,136485,Martigny Avouillons,"Rue des Avouillons 8, 1920 Martigny",,1920,Martigny,Valais,7.085201,46.1057121
Migros Fachmarkt,136450,Martigny Quartz Center,"Avenue de Fully 63, 1920 Martigny",,1920,Martigny,Valais,7.077022899999999,46.1111592
M-Migros,123720,Massagno - Radio,"Via Besso 74, 6900 Massagno",,6900,Massagno,Ticino,8.9390925,46.0097465
M-Migros,33790,Matten,"Aegertiweg 33, 3812 Wilderswil",,3812,Wilderswil,Bern,7.868567199999999,46.6732321
M-Migros,93830,Matzingen,"Frauenfelderstrasse 95, 9548 Matzingen",,9548,Matzingen,Thurgau,8.922372,47.5266094
Migros-Partner,63145,Maupas,"Rue du Maupas 69, 1004 Lausanne",,1004,Lausanne,Vaud,6.623571999999999,46.5259813
MM-Migros,150063,Meilen,"Rosengartenstrasse 10, 8706 Meilen",,8706,Meilen,Zürich,8.6456135,47.2684059
MM-Migros,34470,Meiringen,"Bahnhofstrasse 1, 3860 Meiringen",,3860,Meiringen,Bern,8.184876899999999,46.7281823
M-Migros,123850,Melano,"Via Cantonale 89, 6818 Melano",,6818,Melano,Ticino,8.9853614,45.9192677
M-Migros,33380,Mellingen,"Lenzburgerstrasse 50, 5507 Mellingen",,5507,Mellingen,Aargau,8.267057399999999,47.4132358
MMM-Migros,90471,Mels - Pizolpark,"Grossfeldstrasse 56, 8879 Pizolpark (Mels)",,8879,Pizolpark,Zürich,9.4312979,47.0421211
M-Migros,123760,Mendrisio,"Via L. Lavizzari 2, Piazza alla Valle, 6850 Mendrisio",,6850,Mendrisio,Ticino,8.9861489,45.8703931
M-Migros,33963,Menziken,"Sagiweg 8, 5737 Menziken",,5737,Menziken,Aargau,8.1868862,47.2415495
MM-Migros,44410,Meyrin,"Avenue de Feuillasse 24, 1217 Meyrin",,1217,Meyrin,Genève,6.082617,46.2322514
M-Migros,123650,Minusio - Centro Borenco,"Via S.Gottardo 56, 6648 Minusio",,6648,Minusio,Ticino,8.811113299999999,46.1752695
MM-Migros,64270,Montagny,"En Chamard, 1442 Montagny-près-Yverdon",,1442,Montagny,Vaud,6.6211229,46.7881267
MMM-Migros,134530,Monthey - M Central,"Avenue de la Gare 36, 1870 Monthey",,1870,Monthey,Valais,6.951918399999999,46.2540655
MM-Migros,64410,Montreux,"Place du Marché 6, 1820 Montreux",,1820,Montreux,Vaud,6.9103024,46.43136260000001
MM-Migros,84250,Morat,"Bernstrasse 18, 3280 Morat",,3280,Morat,Bern,7.1230561,46.9300688
MMM-Migros,124270,Morbio Inferiore - Serfontana,"Viale Serfontana 20, 6834 Morbio Inferiore",,6834,Morbio,Ticino,9.0158114,45.845155
MM-Migros,64290,Morges,"Rue de la gare 19, 1110 Morges",,1110,Morges,Vaud,6.4948101,46.50965799999999
MM-Migros,64350,Moudon,"Avenue de la Grande Fin 1, 1510 Moudon",,1510,Moudon,Vaud,6.8007963,46.66791300000001
MM-Migros,24400,Moutier,"Rue de l'Ecluse 1, 2740 Moutier",,2740,Moutier,Bern,7.369839499999999,47.2766867
M-Migros,33873,Murgenthal,"Fahrackerstrasse 1, 4853 Murgenthal",,4853,Murgenthal,Aargau,7.8291953,47.2648681
MM-Migros,33934,Muri AG,"Kirchfeldstrasse 8, 5630 Muri AG",,5630,Muri,Aargau,8.3340601,47.4441295
M-Migros,23810,Muttenz - Lutzert,"Lutzertstrasse 40, 4132 Muttenz",,4132,Muttenz,Basel-Landschaft,7.633268800000001,47.5339698
MM-Migros,24380,Muttenz - Rothausstrasse,"Rothausstrasse 17, 4132 Muttenz",,4132,Muttenz,Basel-Landschaft,7.655712299999999,47.52636030000001
M-Migros,150197,Männedorf,"Alte Landstrasse 262, 8708 Männedorf",,8708,Männedorf,Zürich,8.6959135,47.25284389999999
MMM-Migros,84230,Métropole Centre MS,"Rue Daniel-Jeanrichard 23, 2300 La Chaux-de-Fonds",,2300,La,Neuchâtel,6.8273918,47.1001075
Migros-Partner,63112,Mézières,"Route de la Croix d'Or 2, 1083 Mézières VD",,1083,Mézières,Vaud,6.7697784,46.5962593
M-Migros,33163,Möhlin,"Hauptstrasse 91, 4313 Möhlin",,4313,Möhlin,Basel-Landschaft,7.846618500000001,47.55648189999999
M-Migros,90351,Müllheim,"Thurstrasse 3, 8555 Müllheim Dorf",,8555,Müllheim,Zürich,9.0005056,47.599684
M-Migros,33730,Münchenbuchsee - Tanne,"Bernstrasse 14, 3053 Münchenbuchsee",,3053,Münchenbuchsee,Bern,7.451118999999999,47.019911
MM-Migros,24580,Münchenstein - Gartenstadt,"Kaspar Pfeiffer-Strasse 2, 4142 Münchenstein",,4142,Münchenstein,Basel-Landschaft,7.607324699999999,47.52172059999999
M-Migros,90376,Münchwilen,"Wilerstrasse 5, 9542 Münchwilen",,9542,Münchwilen,Thurgau,8.9981172,47.4777054
MM-Migros,34270,Münsingen,"Bahnhofplatz 5, 3110 Münsingen",,3110,Münsingen,Bern,7.5601532,46.8731962
M-Migros,133770,Naters,"Kelchbachstrasse 16, 3904 Naters",,3904,Naters,Valais,7.9900542,46.325258
M-Migros,33663,Neuenhof,"Zürcherstrasse 113, 5432 Neuenhof",,5432,Neuenhof,Aargau,8.327479799999999,47.450122
Migros-Partner,77210,Neuenkirch,"Luzernstrasse 16, 6206 Neuenkirch",,6206,Neuenkirch,Luzern,8.205216499999999,47.0982197
M-Migros,94220,Neuhausen,"Im RhyTech 4, 8212 Neuhausen",,8212,Neuhausen,Zürich,8.6145234,47.682631
M-Migros,93750,Neunkirch,"Löhningerstrasse 4, 8213 Neunkirch",,8213,Neunkirch,Zürich,8.5045769,47.6902894
M-Migros,83960,Neyruz,"Place de la Gare 10, 1740 Neyruz FR",,1740,Neyruz,Fribourg,7.000525,46.7489766
MM-Migros,34330,Nidau,"Lyssstrasse 15, 2560 Nidau",,2560,Nidau,Bern,7.246324100000001,47.1263706
M-Migros,150180,Niederhasli,"Dorfstrasse 20, 8155 Niederhasli",,8155,Niederhasli,Zürich,8.4852066,47.4798122
M-Migros,150187,Niederurnen,"Ziegelbrückstrasse 21, 8867 Niederurnen",,8867,Niederurnen,Zürich,9.0560191,47.1286639
M-Migros,63645,Noville,"Route du Simplon, 1845 Noville",,1845,Noville,Vaud,6.9217569,46.390521
M-Migros,33733,Nussbaumen - Markthof,"Schulstrasse 2, 5415 Nussbaumen b.Baden",,5415,Nussbaumen,Aargau,8.2923653,47.4876958
MMM-Migros,44470,Nyon - La Combe,"Rue de la Morâche 6, 1260 Nyon",,1260,Nyon,Vaud,6.2346698,46.3827212
Migros Fachmarkt,44320,Nyon - Porte de Nyon,"chemin de la Fontaine 1, 1260 Nyon",,1260,Nyon,Vaud,6.220672899999999,46.3883058
M-Migros,150330,Näfels,"Oberdorf 44, 8752 Näfels",,8752,Näfels,Zürich,9.0593448,47.0936675
M-Migros,150161,Oberengstringen,"Im Zentrum 2, 8102 Oberengstringen",,8102,Oberengstringen,Zürich,8.4633333,47.40861109999999
M-Migros,150021,Oberglatt,"Lägernstrasse 6, 8154 Oberglatt ZH",,8154,Oberglatt,Zürich,8.507587,47.47555999999999
M-Migros,73280,Oberkirch,"Luzernstrasse 36, 6208 Oberkirch LU",,6208,Oberkirch,Luzern,8.1137803,47.1651653
M-Migros,90331,Oberriet,"Staatsstrasse 56, 9463 Oberriet SG",,9463,Oberriet,Zürich,9.563509,47.3155572
MMM-Migros,23800,Oberwil,"Mühlemattstrasse 18, 4104 Oberwil",,4104,Oberwil,Basel-Stadt,7.5544142,47.5099847
M-Migros,33923,Oensingen,"Mühlefeldstrasse 53, 4702 Oensingen",,4702,Oensingen,Solothurn,7.719151699999999,47.2889251
MM-Migros,34253,Oftringen,"Zürichstrasse 2, 4665 Oftringen",,4665,Oftringen,Aargau,7.919854,47.31297259999999
MM-Migros,34383,Olten - Hammer,"Solothurnerstrasse 21, 4600 Olten",,4600,Olten,Solothurn,7.8979731,47.349999
MM-Migros,34403,Olten - Sälipark,"Louis Giroud-Strasse 20, 4600 Olten",,4600,Olten,Solothurn,7.910366199999999,47.3465494
MM-Migros,150154,Opfikon - Glattpark,"Thurgauerstrasse 106, 8152 Opfikon",,8152,Opfikon,Zürich,8.5577823,47.4210946
M-Migros,63930,Orbe,"Rue des Terreaux 22, 1350 Orbe",,1350,Orbe,Vaud,6.531313099999999,46.7238364
M-Migros,63825,Orbe Gruvatiez,"Route des Granges-Martin 22, 1350 Orbe",,1350,Orbe,Vaud,6.5323588,46.7293301
M-Migros,63810,Oron-la-Ville,"Route de Lausanne 2, 1610 Oron-la-Ville",,1610,Oron,Fribourg,6.825833299999999,46.5719444
MM-Migros,34430,Ostermundigen,"Bernstrasse 114, 3072 Ostermundigen",,3072,Ostermundigen,Bern,7.496015499999999,46.9567813
M-Migros,33720,Ostermundigen Poststrasse,"Poststr. 1, 3072 Ostermundigen 1",,3072,Ostermundigen,Bern,7.4826206,46.9561663
MM-Migros,64360,Payerne,"Rue du Temple 19, 1530 Payerne",,1530,Payerne,Vaud,6.9395504,46.820204
MM-Migros,84260,Peseux,"Rue Jämes-Paris 4, 2034 Peseux",,2034,Peseux,Neuchâtel,6.8892536,46.9861029
M-Migros,93820,Pfungen,"Weiacherstrasse 1, 8422 Pfungen",,8422,Pfungen,Zürich,8.6500922,47.5172884
MM-Migros,150072,Pfäffikon - Seedammcenter,"Gwattstrasse 11, 8808 Pfäffikon SZ",,8808,Pfäffikon,Zürich,8.793173699999999,47.2004028
MM-Migros,94340,Pfäffikon ZH,"Turmstrasse 9, 8330 Pfäffikon ZH",,8330,Pfäffikon,Zürich,8.7812436,47.36860859999999
M-Migros,83920,Plaffeien,"Obere Matte 9, 1716 Plaffeien",,1716,Plaffeien,Fribourg,7.2913561,46.7401152
MM-Migros,44590,Plan-les-Ouates,"Route de Saint-Julien 176, 1228 Plan-les-Ouates",,1228,Plan,Genève,6.1151683,46.1676393
Migros-Partner,63162,Pontaise,"Avenue Jomini 11, 1018 Lausanne",,1018,Lausanne,Vaud,6.6284683,46.5303172
Migros-Supermarkt,90706,Popup - Openair Frauenfeld,"Allmend, 8500 Frauenfeld",Geschlossen,8500,Frauenfeld,Zürich,8.8974919,47.57620499999999
MM-Migros,24270,Porrentruy,"Faubourg St Germain 2, 2900 Porrentruy",,2900,Porrentruy,Jura,7.0780708,47.416548
MM-Migros,44920,Porte de Versoix,"Chemin de l'ancien péage 1, 1290 Versoix",,1290,Versoix,Genève,6.1672147,46.2752807
M-Migros,84220,Portes-Rouges,"Avenue des Portes-Rouges 46, 2000 Neuchâtel",,2000,Neuchâtel,Neuchâtel,6.9553646,47.0040459
MM-Migros,23640,Pratteln,"Burggartenstrasse 21, 4133 Pratteln",,4133,Pratteln,Basel-Landschaft,7.694181100000001,47.5207122
Migros-Partner,29540,Pratteln-Gehrenacker,"Gehrenackerstrasse 7, 4133 Pratteln",,4133,Pratteln,Basel-Landschaft,7.704299799999999,47.5212632
M-Migros,123810,Pregassona,"Via alla Bozzoreda 39, 6963 Pregassona",,6963,Pregassona,Ticino,8.9672138,46.0234978
M-Migros,63820,Prilly,"Route de Cossonay 9, 1008 Prilly",,1008,Prilly,Vaud,6.607736999999999,46.533212
M-Migros,63870,Prilly - Malley,"Chemin du Viaduc 1, 1008 Prilly",,1008,Prilly,Vaud,6.6027859,46.5271852
M-Migros,63655,Préverenges,"Chemin du Vuasset 2, 1028 Préverenges",,1028,Préverenges,Vaud,6.5174739,46.5181628
Migros-Partner,63190,Puidoux,"Chemin de Publoz 11, 1070 Puidoux",,1070,Puidoux,Vaud,6.769493799999999,46.4922216
MM-Migros,64600,Pully,"Chemin du Pré-de-la-Tour 3, 1009 Pully",,1009,Pully,Vaud,6.6599262,46.511495
MM-Migros,84300,Pérolles Centre,"Boulevard de Pérolles 21 A, 1700 Fribourg",,1700,Fribourg,Fribourg,7.1519837,46.79977030000001
M-Migros,73920,Rain,"Gääli 6, 6026 Rain",,6026,Rain,Aargau,8.2496975,47.1269865
Migros-Partner,97300,Ramsen,"Petersburg 416, 8262 Ramsen",,8262,Ramsen,Zürich,8.820864799999999,47.7068679
MM-Migros,150071,Rapperswil - Sonnenhof,"Zürcherstrasse 4, 8640 Rapperswil SG",,8640,Rapperswil,Zürich,8.8213855,47.2294502
M-Migros,150188,Rapperswil - Zentrum,"Untere Bahnhofstrasse 19, 8640 Rapperswil SG",,8640,Rapperswil,Zürich,8.8182107,47.2256951
Migros-Partner,90729,Rebstein,"Staatsstrasse 128, 9445 Rebstein",,9445,Rebstein,Zürich,9.5808391,47.3970469
MMM-Migros,150060,Regensdorf - Zentrum,"Zentrum 1, 8105 Regensdorf",,8105,Regensdorf,Zürich,8.4691306,47.4313251
M-Migros,150083,Reichenburg,"Gewerbestrasse 4, 8864 Reichenburg",,8864,Reichenburg,Schwyz,8.969543999999999,47.1723969
M-Migros,73210,Reiden,"Hauptstrasse 52, 6260 Reiden",,6260,Reiden,Luzern,7.9714129,47.24840589999999
MM-Migros,24420,Reinach - Mischeli,"Niederbergstrasse 1, 4153 Reinach BL",,4153,Reinach,Basel-Landschaft,7.5964122,47.5023499
M-Migros,23850,Reinach - Zentrum,"Herrenweg 11, 4153 Reinach BL",,4153,Reinach,Basel-Landschaft,7.5945005,47.492663
MM-Migros,34463,Reinach AG,"Sandgasse 6, 5734 Reinach AG",,5734,Reinach,Aargau,8.181545999999999,47.258112
M-Migros,64280,Renens - Florissant,"Avenue de Florissant 38, 1020 Renens VD",,1020,Renens,Vaud,6.5981044,46.5307464
MM-Migros,64590,Renens - Métropole,"Rue de la Mèbre 9, 1020 Renens VD",,1020,Renens,Vaud,6.5808829,46.53853729999999
M-Migros,63625,Renens Quai Ouest,"Avenue d'Epenex 4c, 1020 Renens VD",,1020,Renens,Vaud,6.5773418,46.5376966
M-Migros,64325,Renens Silo,"Rue du Silo 11, 1020 Renens",,1020,Renens,Vaud,6.5909099,46.53643779999999
M-Migros,90326,Rheineck,"Rhyguetstrasse 2, 9424 Rheineck",,9424,Rheineck,Zürich,9.588585700000001,47.4683877
MM-Migros,34293,Rheinfelden,"Lindenstrasse 3, 4310 Rheinfelden",,4310,Rheinfelden,Basel-Landschaft,7.7980646,47.5550963
M-Migros,123890,Riazzino,"Via Cantonale 40, 6595 Riazzino",,6595,Riazzino,Ticino,8.8898862,46.1750443
M-Migros,150158,Richterswil,"Schützengass 4, 8805 Richterswil",,8805,Richterswil,Zürich,8.705487,47.206498
MM-Migros,24360,Riehen - Dorf,"Rössligasse/Webergässchen 8, 4125 Riehen",,4125,Riehen,Basel-Landschaft,7.651635499999998,47.5853707
Migros-Partner,29580,Riehen - Grenzacherweg,"Grenzacherweg 81, 4125 Riehen",,4125,Riehen,Basel-Landschaft,7.646789800000001,47.57550819999999
Migros-Partner,29620,Riehen - Niederholz,"Gotenstrasse 84, 4125 Riehen",,4125,Riehen,Basel-Landschaft,7.6333912,47.5697419
MM-Migros,64380,Rolle,"Av. de la Gare 17, 1180 Rolle",,1180,Rolle,Vaud,6.3380831,46.4611274
MMM-Migros,65010,Romanel-sur-Lausanne,"En Félezin, 1032 Romanel-s-Lausanne",,1032,Romanel,Vaud,6.611738799999999,46.559423
MM-Migros,90443,Romanshorn - Hubzelg,"Bahnhofstrasse 54a, 8590 Romanshorn",,8590,Romanshorn,Zürich,9.3672494,47.5642471
MM-Migros,84292,Romont,"Avenue de la Gare 7, 1680 Romont FR",,1680,Romont,Fribourg,6.9125703,46.6931658
M-Migros,73290,Root,"Bahnhofstrasse 11b, 6037 Root",,6037,Root,Aargau,8.3919455,47.1179287
M-Migros,90324,Rorschach - Promenade,"Promenadenstrasse 83, 9400 Rorschach",,9400,Rorschach,Zürich,9.4953107,47.47419679999999
MM-Migros,90445,Rorschach - Trischliplatz,"Trischlistrasse 15, 9400 Rorschach",,9400,Rorschach,Zürich,9.4895747,47.4785111
M-Migros,33383,Rothrist,"Neue Aarburgstrasse 20, 4852 Rothrist",,4852,Rothrist,Aargau,7.887301099999999,47.3066608
M-Migros,73820,Rotkreuz,"Buonaserstrasse 1, 6343 Rotkreuz",,6343,Rotkreuz,Luzern,8.4282621,47.1412476
M-Migros,73710,Ruopigen Zentrum Luzern,"Ruopigenplatz, 6015 Luzern",,6015,Luzern,Aargau,8.2747288,47.0614259
M-Migros,73860,Ruswil,"Rüediswilerstrasse 79, 6017 Ruswil",,6017,Ruswil,Aargau,8.11279,47.08841
Migros-Partner,137215,Réchy,"Place Pranniviers 8, 3966 Réchy",,3966,Réchy,Valais,7.496319499999999,46.26297599999999
M-Migros,150147,Rümlang Hofwisencenter,"Hofwisenstrasse 40A, 8153 Rümlang",,8153,Rümlang,Zürich,8.537538999999999,47.4506554
M-Migros,150075,Rüschlikon Parkside,"Zürcherstrasse 4, 8803 Rüschlikon",,8803,Rüschlikon,Zürich,8.5509272,47.3002924
MM-Migros,94230,Rüti ZH,"Bandwiesstrasse 6, 8630 Rüti",,8630,Rüti,Zürich,8.849336899999999,47.2580794
M-Migros,133750,Saas Fee,"Hôtel du Glacier, 3906 Saas Fee",,3906,Saas,Valais,7.925843,46.1075331
M-Migros,83790,Saignelégier,"Rue de la Gruère 23, 2350 Saignelégier",,2350,Saignelégier,Jura,7.0007741,47.2543084
M-Migros,63840,Sainte-Croix,"Rue de l'Industrie 21, 1450 Ste-Croix",,1450,Ste,Vaud,6.503079,46.8197592
MM-Migros,90468,Samedan,"Cho d`Punt 10, 7503 Samedan",,7503,Samedan,Graubünden,9.8739344,46.53115
MM-Migros,74290,Sarnen - Sarnen-Center,"Nelkenstrasse 5, 6060 Sarnen",,6060,Sarnen,Obwalden,8.2489189,46.8967021
M-Migros,133720,Savièse,"Centre Commercial du Stade, 1965 Savièse",,1965,Savièse,Valais,7.334546500000001,46.310073
M-Migros,136475,Saxon,"Rue de Gottefrey 38, 1907 Saxon",,1907,Saxon,Valais,7.173367799999999,46.1487743
M-Migros,90312,Schaan,"Im Rösle 2, 9494 Schaan",,9494,Schaan,Zürich,9.504043,47.168639
M-Migros,93670,Schaffhausen - Breite,"Hohlenbaumstrasse 79, 8200 Schaffhausen",,8200,Schaffhausen,Zürich,8.6199955,47.70639440000001
M-Migros,93130,Schaffhausen - Buchthalen,"Dürstlingweg 2, 8203 Schaffhausen",,8203,Schaffhausen,Zürich,8.654577,47.699119
MMM-Migros,94710,Schaffhausen - Herblinger Markt,"Stüdliackerstrasse 4, 8207 Schaffhausen",,8207,Schaffhausen,Zürich,8.6649691,47.7200564
MM-Migros,94310,Schaffhausen - Vorstadt,"Bahnhofstrasse 56/58, 8200 Schaffhausen",,8200,Schaffhausen,Zürich,8.6340494,47.6987877
M-Migros,150329,Schindellegi,"Pfäffikonerstrasse 19, 8834 Schindellegi",,8834,Schindellegi,Schwyz,8.7130995,47.1758732
M-Migros,150053,Schlieren - Kesslerplatz,"Badenerstrasse 57, 8952 Schlieren",Geschlossen,8952,Schlieren,Zürich,8.437052999999999,47.3966173
MM-Migros,150081,Schlieren - Rietbach,"Rietbachstrasse 14, 8952 Schlieren",,8952,Schlieren,Zürich,8.4350087,47.4004418
M-Migros,150198,Schlieren - Zentrum,"Güterstrasse 5, 8952 Schlieren",,8952,Schlieren,Zürich,8.4471104,47.3985321
M-Migros,83640,Schoenberg,"Chemin Cité-des-Jardins 13A, 1700 Fribourg",,1700,Fribourg,Fribourg,7.171377000000001,46.809102
M-Migros,33260,Schwarzenburg,"Freiburgstrasse 5b, 3150 Schwarzenburg",,3150,Schwarzenburg,Bern,7.339542799999999,46.81760329999999
M-Migros,33883,Schöftland,"Picardiestrasse 3, 5040 Schöftland",,5040,Schöftland,Aargau,8.047623999999999,47.3029275
MMM-Migros,34700,Schönbühl - Shoppyland,"Industriestrasse 10, 3321 Schönbühl EKZ",,3321,Schönbühl,Bern,7.491994099999999,47.0168401
M-Migros,33783,Schönenwerd,"C.F. Ballystrasse 14, 5012 Schönenwerd",,5012,Schönenwerd,Solothurn,8.003121,47.373527
M-Migros,73830,Schüpfheim,"Vormüli 1, 6170 Schüpfheim",,6170,Schüpfheim,Luzern,8.0152479,46.9488855
M-Migros,136480,Sembrancher,"Rue de la Chapalette 1, 1933 Sembrancher",,1933,Sembrancher,Valais,7.1475468,46.0788537
M-Migros,123860,Sementina,"via al Ticino 28, 6514 Sementina",,6514,Sementina,Ticino,8.9921249,46.1821581
M-Migros,73910,Sempach Station,"Mettenwilstrasse 11, 6203 Sempach Station",,6203,Sempach,Luzern,8.199438200000001,47.1170786
M-Migros,33913,Seon,"Unterdorfstrasse 21, 5703 Seon",,5703,Seon,Aargau,8.161255299999999,47.3478977
MM-Migros,44810,Servette,"Rue de la Servette 93, 1202 Genève",,1202,Genève,Genève,6.1296829,46.2133978
M-Migros,93720,Seuzach,"Winterthurerstrasse 5, 8472 Seuzach",,8472,Seuzach,Zürich,8.7302705,47.5355435
MM-Migros,134500,Sierre,"Avenue Général Guisan, 3960 Sierre",,3960,Sierre,Valais,7.5290697,46.2921149
Migros Fachmarkt,134510,Sierre Rossfeld,"Rte des Lacustres, 3960 Sierre",,3960,Sierre,Valais,7.5139609,46.2815902
M-Migros,133690,Sion - Le Ritz,"Avenue Ritz 31, 1950 Sion",,1950,Sion,Valais,7.3596396,46.235786
MMM-Migros,134900,Sion - Métropole,"Avenue de France 14-20, 1950 Sion",,1950,Sion,Valais,7.3558322,46.2288045
M-Migros,133697,Sion - Tourbillon Center,"Avenue Grand-Champsec 30, 1950 Sion",,1950,Sion,Valais,7.3841599,46.2314136
M-Migros,90377,Sirnach,"Winterthurerstrasse 27, 8370 Sirnach",,8370,Sirnach,Zürich,8.9916881,47.4636891
MM-Migros,23830,Sissach,"Hauptstrasse 17, 4450 Sissach",,4450,Sissach,Basel-Landschaft,7.816976499999999,47.4622492
M-Migros,34373,Solothurn,"Wengistrasse 13, 4500 Solothurn",,4500,Solothurn,Solothurn,7.533167,47.2068854
M-Migros,33853,Solothurn Baselstrasse,"Baselstrasse 30/32, 4500 Solothurn",,4500,Solothurn,Solothurn,7.5446377,47.2112133
M-Migros,33833,Solothurn Öufi,"Bielstrasse 80, 4500 Solothurn",,4500,Solothurn,Solothurn,7.5262265,47.2113515
MM-Migros,34280,Spiez - Terminus,"Bahnhofstrasse, 3700 Spiez",,3700,Spiez,Bern,7.68144,46.6857809
MMM-Migros,34833,Spreitenbach - Tivoli,"Shoppi Tivoli, 8957 Spreitenbach",,8957,Spreitenbach,Zürich,8.367677200000001,47.42216330000001
M-Migros,83690,St-Imier,"Rue Baptiste-Savoye 62, 2610 St-Imier",,2610,St,Bern,6.995280999999999,47.151526
M-Migros,133730,St-Maurice,"Av. du Simplon 15, 1890 St-Maurice",,1890,St,Vaud,7.0052958,46.2147356
M-Migros,90364,St. Gallen - Bruggen,"Fürstenlandstrasse 157, 9014 St.Gallen",,9014,St,Zürich,9.335172799999999,47.4099874
M-Migros,90321,St. Gallen - Lachen,"Ulmenstrasse 11, 9000 St.Gallen",,9000,St,Zürich,9.3539816,47.4203649
M-Migros,90335,St. Gallen - Langgasse,"Langgasse 20, 9008 St. Gallen",,9008,St,Zürich,9.3863258,47.4352455
M-Migros,90336,St. Gallen - Neudorf,"Rorschacherstrasse 249, 9016 St. Gallen",,9016,St,Zürich,9.4050536,47.43718579999999
MMM-Migros,90478,St. Gallen - Neumarkt,"St. Leonhardstrasse 35, 9000 St. Gallen",,9000,St,Zürich,9.3706623,47.4222438
M-Migros,90447,St. Gallen - Silberturm,"Rorschacherstrasse 150, 9006 St. Gallen",,9006,St,Zürich,9.396088299999999,47.4311198
M-Migros,90339,St. Gallen - Spisermarkt,"Brühlgasse 28, 9000 St.Gallen",,9000,St,Zürich,9.3781919,47.42523629999999
MM-Migros,90448,St. Gallen - St. Fiden,"Bachstrasse 29, 9008 St. Gallen",,9008,St,Zürich,9.3918559,47.4358209
MMM-Migros,90475,St. Margrethen - Rheinpark,"Neudorfstrasse 60, 9430 St. Margrethen SG",,9430,St,Zürich,9.651201799999999,47.4500726
Migros-Partner,137265,St. Niklaus,"Eyastrasse 1, 3924 St. Niklaus VS",,3924,St,Valais,7.8256813,46.1619189
Migros-Partner,137255,Stalden,"Zum Marktplatz, 3922 Stalden VS",,3922,Stalden,Valais,7.870670499999999,46.2331036
MMM-Migros,74720,Stans - Länderpark,"Bitzistrasse 2, 6370 Stans",,6370,Stans,Nidwalden,8.354756799999999,46.9653342
MM-Migros,83830,Ste-Thérèse,"Route de Sainte-Thérèse 2a, 1700 Fribourg",,1700,Fribourg,Fribourg,7.166843099999999,46.8097823
M-Migros,93740,Steckborn,"Im Feldbach 1b, 8266 Steckborn",,8266,Steckborn,Zürich,8.975932,47.6637555
M-Migros,33690,Steffisburg,"Oberdorfstrasse 33, 3612 Steffisburg",,3612,Steffisburg,Bern,7.6338312,46.7811567
MM-Migros,34180,Steffisburg Unterdorf,"Unterdorfstrasse 10, 3612 Steffisburg",,3612,Steffisburg,Bern,7.6340077,46.778138
M-Migros,134260,Steg,"Bahnhofstrasse, 3940 Steg",,3940,Steg,Valais,7.7452664,46.3147101
M-Migros,33673,Stein,"Schaffhauserstrasse 61, 4332 Stein AG",,4332,Stein,Basel-Landschaft,7.9546493,47.5489963
M-Migros,94300,Stein am Rhein,"Kaltenbacherstrasse 41, 8260 Stein am Rhein",,8260,Stein,Zürich,8.853030799999999,47.65139430000001
MMM-Migros,74710,Steinhausen - Zugerland,"Hinterbergstrasse 40, 6312 Steinhausen",,6312,Steinhausen,Luzern,8.4769179,47.1924775
M-Migros,73970,Steinhausen Dorf,"Bahnhofstrasse 2, 6312 Steinhausen",,6312,Steinhausen,Luzern,8.4849262,47.1970572
MM-Migros,150069,Stäfa,"Goethestrasse 18, 8712 Stäfa",,8712,Stäfa,Zürich,8.724061599999999,47.2406752
M-Migros,33684,Suhr Suhrepark,"Bernstrasse Ost 52, 5034 Suhr",,5034,Suhr,Aargau,8.0821378,47.3728803
M-Migros,90383,Sulgen - Passerelle,"Hauptstrasse 3, 8583 Sulgen",,8583,Sulgen,Zürich,9.1823354,47.5403518
MMM-Migros,74700,Surseepark,"Bahnhofstrasse 28, 6210 Sursee",,6210,Sursee,Luzern,8.1021966,47.1729202
Migros-Partner,137230,Susten,"Sustenstrasse 5, 3952 Susten",,3952,Susten,Valais,7.6417446,46.3109719
Migros-Partner,137203,Taesch,"Neue Kantonstrasse, 3929 Täsch",,3929,Täsch,Valais,7.776049500000001,46.0676625
M-Migros,83740,Tavannes,"Rue de Pierre-Pertuis 11, 2710 Tavannes",,2710,Tavannes,Bern,7.197643200000001,47.2192623
M-Migros,123800,Taverne,"Via Cantonale, 6807 Taverne",,6807,Taverne,Ticino,8.9314953,46.0608167
M-Migros,123770,Tenero,"Via al Giardino 4, 6598 Tenero",,6598,Tenero,Ticino,8.850601,46.180653
M-Migros,123690,Tesserete,"Via Luigi Canonica 40, 6950 Tesserete",,6950,Tesserete,Ticino,8.967319,46.066931
M-Migros,90385,Teufen,"Speicherstrasse 8, 9053 Teufen AR",,9053,Teufen,Zürich,9.3908577,47.3907473
M-Migros,90328,Thal,"Wiesentalstrasse 4, 9425 Thal",,9425,Thal,Zürich,9.576772,47.4798306
MM-Migros,150066,Thalwil,"Alte Landstrasse 130, 8800 Thalwil",,8800,Thalwil,Zürich,8.563848799999999,47.2943495
M-Migros,93710,Thayngen,"Biberstrasse 30, 8240 Thayngen",,8240,Thayngen,Zürich,8.7067122,47.7488189
Migros-Partner,63200,Thierrens,"Rue du Collège 6, 1410 Thierrens",,1410,Thierrens,Vaud,6.754728099999999,46.7043796
MMM-Migros,49000,Thoiry (F),"CC Val Thoiry, 01710 Thoiry",,1710,Thoiry,Fribourg,5.9947919,46.2289922
MM-Migros,34250,Thun - Bälliz,"Bälliz 2, 3600 Thun",,3600,Thun,Bern,7.6266341,46.76012069999999
M-Migros,33680,Thun - Dürrenast,"Frutigenstrasse 60, 3604 Thun",,3604,Thun,Bern,7.626153100000001,46.7451436
MMM-Migros,34720,Thun - Oberland,"Talackerstrasse 62, 3604 Thun",,3604,Thun,Bern,7.614778,46.7447598
Migros Fachmarkt,33250,Thun - Panorama Center,"Weststrasse 14, 3604 Thun",,3604,Thun,Bern,7.6050711,46.7450556
MM-Migros,90466,Thusis - im Park,"Im Park, 7430 Thusis",,7430,Thusis,Graubünden,9.440026,46.694364
MM-Migros,44830,Thônex,"Rue de Genève 92, 1226 Thônex",,1226,Thônex,Genève,6.199732099999999,46.1932155
M-Migros,83610,Tramelan,"Rue Albert-Gobat 1, 2720 Tramelan",,2720,Tramelan,Bern,7.0996993,47.22346839999999
M-Migros,90341,Triesen,"Landstrasse 251, 9495 Triesen",,9495,Triesen,Zürich,9.5256168,47.10866739999999
M-Migros,93175,Turbenthal,"Tösstalstrasse 54, 8488 Turbenthal",,8488,Turbenthal,Zürich,8.8446242,47.4385924
M-Migros,90361,Tägerwilen,"Hauptstrasse 117, 8274 Tägerwilen",,8274,Tägerwilen,Zürich,9.141418999999999,47.6539146
M-Migros,33330,Uetendorf,"Dorfstrasse 21, 3661 Uetendorf",,3661,Uetendorf,Bern,7.573312899999999,46.77459830000001
M-Migros,150080,Uitikon-Waldegg,"Zürcherstrasse 8, 8142 Uitikon Waldegg",,8142,Uitikon,Zürich,8.461661,47.3687202
MM-Migros,33653,Unterentfelden,"Binzmattweg 8, 5035 Unterentfelden",,5035,Unterentfelden,Aargau,8.0457322,47.3620581
M-Migros,96531,Unterwetzikon,"Hofstrasse 47, 8620 Wetzikon ZH",,8620,Wetzikon,Zürich,8.7948042,47.3143471
M-Migros,73760,Unterägeri,"Zugerstrasse 32, 6314 Unterägeri",,6314,Unterägeri,Luzern,8.579203,47.1380428
M-Migros,150151,Urdorf - Spitzacker,"Birmensdorferstrasse 87, 8902 Urdorf",,8902,Urdorf,Zürich,8.4217389,47.3850391
MMM-Migros,150251,Uster - Illuster,"Zürichstrasse 20, 8610 Uster",,8610,Uster,Zürich,8.71517,47.34983340000001
Migros Fachmarkt,150194,Uster-West,"Winterthurerstrasse 18, 8610 Uster",,8610,Uster,Zürich,8.7132171,47.3544989
M-Migros,33350,Utzenstorf - Linde,"Hauptstrasse 29, 3427 Utzenstorf",,3427,Utzenstorf,Bern,7.558567000000001,47.128547
MM-Migros,150179,Uznach - Frohsinn,"Zürcherstrasse 25, 8730 Uznach",,8730,Uznach,Zürich,8.980858,47.2262636
MM-Migros,90450,Uzwil - Birkenhof,"Lindenstrasse 5, 9240 Uzwil",,9240,Uzwil,Zürich,9.1349219,47.4366031
Voi,37338,VOI Aarburg,"Bahnhofstrasse 59, 4663 Aarburg",,4663,Aarburg,Solothurn,7.9067907,47.3208973
Voi,37322,VOI Aarwangen,"Langenthalstrasse 44, 4912 Aarwangen",,4912,Aarwangen,Bern,7.7719966,47.23622959999999
Voi,77357,VOI Alpnach,"Brünigstrasse 29, 6055 Alpnach Dorf",,6055,Alpnach,Obwalden,8.2759375,46.9521734
Voi,37335,VOI Baden - Mellingerstrasse,"Mellingerstrasse 142, 5400 Baden",,5400,Baden,Aargau,8.2933184,47.4673506
Voi,49103,VOI Bellevue,"Chemin des Romelles 17, 1293 Bellevue",,1293,Bellevue,Genève,6.1484049,46.2496047
Voi,37303,VOI Bern - Fellergut,"Mühledorfstrasse 15, 3018 Bern",,3018,Bern,Bern,7.390210799999998,46.9453383
Voi,37306,VOI Bern - Fischermätteli,"Könizstrasse 60, 3008 Bern",,3008,Bern,Bern,7.4186333,46.9412363
Voi,37343,VOI Bern - Kramgasse,"Kramgasse 54, 3011 Bern",,3011,Bern,Bern,7.449745900000001,46.9481109
Voi,37311,VOI Bern - Schosshalde,"Schossshaldenstrasse 16, 3006 Bern",,3006,Bern,Bern,7.462897999999999,46.9453774
Voi,37325,VOI Bern - Spiegel,"Chasseralstrasse 156, 3095 Bern",,3095,Bern,Bern,7.433204,46.9264999
Voi,37334,VOI Bern - Viktoriastrasse,"Viktoriastrasse 49, 3013 Bern",,3013,Bern,Bern,7.454492399999999,46.9536931
Voi,37351,VOI Bern Warmbächli,"Holligerplatz 1, 3008 Bern",,3008,Bern,Bern,7.415764100000001,46.9465707
Voi,77350,VOI Beromünster,"Aargauerstrasse 16, 6215 Beromünster",,6215,Beromünster,Luzern,8.1917106,47.2096934
Voi,37314,VOI Bettlach,"Dorfstrasse 12, 2544 Bettlach",,2544,Bettlach,Solothurn,7.4263239,47.1995155
Voi,37345,VOI Biel - Jardin du Paradis,"Jakob-Stämpflistrasse 112, 2502 Biel/Bienne",,2502,Biel,Bern,7.2632642,47.1454426
Voi,37319,VOI Biel - Mett,"Schollstrasse 2, 2504 Biel/Bienne",,2504,Biel,Bern,7.2720206,47.1427235
Voi,37339,VOI Boll,"Kernstrasse 9, 3067 Boll",,3067,Boll,Bern,7.547880600000001,46.95471089999999
Voi,150816,VOI Bonstetten,"Schachenstrasse 115, 8906 Bonstetten",,8906,Bonstetten,Zürich,8.4723525,47.32531549999999
Voi,37307,VOI Brügg,"Hauptstrasse 17, 2555 Brügg BE",,2555,Brügg,Bern,7.280347700000001,47.1238311
Voi,150802,VOI Buchs ZH,"Meierwiesenstrasse 20, 8107 Buchs",,8107,Buchs,Zürich,8.4399277,47.4561183
Voi,77354,VOI Büron,"Sagipark 7, 6233 Büron",,6233,Büron,Luzern,8.094478,47.21325179999999
Voi,37321,VOI Dulliken,"Grundstrasse 1, 4657 Dulliken",,4657,Dulliken,Solothurn,7.934487,47.3543347
Voi,49100,VOI Genève-Cirque,"Place du Cirque 2, 1204 Genève",,1204,Genève,Genève,6.1399726,46.2010503
Voi,150806,VOI Geroldswil,"Huebwiesenstrasse 26b, 8954 Geroldswil",,8954,Geroldswil,Zürich,8.411611299999999,47.4214637
Voi,49102,VOI Gland,"Rue du Borgeaud 10d, 1196 Gland",,1196,Gland,Vaud,6.2617964,46.4232148
Voi,37308,VOI Grindelwald,"Dorfstrasse 155, 3818 Grindelwald",,3818,Grindelwald,Bern,8.039067,46.623604
Voi,150803,VOI Horgen,"Seestrasse 288, 8810 Horgen",,8810,Horgen,Zürich,8.6116263,47.2551087
Voi,37324,VOI Ins,"Moosgasse 7, 3232 Ins",,3232,Ins,Bern,7.1070969,47.0040626
Voi,37323,VOI Jegenstorf,"Solothurnstrasse 24, 3303 Jegenstorf",,3303,Jegenstorf,Bern,7.510330100000001,47.0514348
Voi,37344,VOI Kappel,"Mittelgäustrasse 22, 4616 Kappel SO",,4616,Kappel,Solothurn,7.8468992,47.3236429
Voi,150813,VOI Kilchberg,"Bahnhofstrasse 3, 8802 Kilchberg ZH",,8802,Kilchberg,Zürich,8.5487337,47.3238482
Voi,37355,VOI Köniz-Neuhausplatz,"Könizstrasse 251, 3097 Liebefeld",,3097,Liebefeld,Bern,7.4167025,46.9287029
Voi,37328,VOI Lengnau,"Bielstrasse 35, 2543 Lengnau BE",,2543,Lengnau,Bern,7.363115199999999,47.1807898
Voi,37356,VOI Lenzburg,"Augustin Keller-Strasse 19, 5600 Lenzburg",,5600,Lenzburg,Aargau,8.1698484,47.3887267
Voi,77355,VOI Luzern Wesemlin,"Abendweg 46, 6006 Luzern",,6006,Luzern,Aargau,8.315586999999999,47.0606349
Voi,49101,VOI Meyrin - Les Vergers,"3, place de la Diversité, 1217 Meyrin",,1217,Meyrin,Genève,6.0678463,46.2306228
Voi,37316,VOI Niederbipp,"Wydenstrasse 9, 4704 Niederbipp",,4704,Niederbipp,Solothurn,7.692324600000001,47.2696768
Voi,37317,VOI Niedergösgen,"Aarestrasse 49, 5013 Niedergösgen",,5013,Niedergösgen,Solothurn,7.9937023,47.37182929999999
Voi,37336,VOI Niederlenz,"Lenzburgerstrasse 2, 5702 Niederlenz",,5702,Niederlenz,Aargau,8.1771456,47.398305
Voi,37346,VOI Niederrohrdorf,"Moosstrasse 2, 5443 Niederrohrdorf",,5443,Niederrohrdorf,Aargau,8.3001316,47.4249253
Voi,37329,VOI Roggwil,"Dorfstrasse 19, 4914 Roggwil",,4914,Roggwil,Bern,7.822110799999999,47.239524
Voi,37309,VOI Rombach,"Bibersteinstrasse 4, 5022 Rombach",,5022,Rombach,Aargau,8.044495699999999,47.4016779
Voi,150808,VOI Rümlang,"Lindenstrasse 16, 8153 Rümlang",,8153,Rümlang,Zürich,8.5316753,47.4497704
Voi,37341,VOI Safenwil,"Güterstrasse 1A, 5745 Safenwil",,5745,Safenwil,Aargau,7.985461699999999,47.3210566
Voi,37347,VOI Schafisheim,"Seetalstrasse 117, 5503 Schafisheim",,5503,Schafisheim,Aargau,8.143901999999999,47.3757681
Voi,150810,VOI Schwerzenbach,"Bahnstrasse 14, 8603 Schwerzenbach",,8603,Schwerzenbach,Zürich,8.6588466,47.3853514
Voi,37312,VOI Seengen,"Unterdorfstrasse 7a, 5707 Seengen",,5707,Seengen,Aargau,8.2036327,47.3248577
Voi,77351,VOI Sempach Stadt,"Oberstadt 6, 6204 Sempach Stadt",,6204,Sempach,Luzern,8.192007,47.13621939999999
Voi,150807,VOI Siebnen,"Glarnerstrasse 36, 8854 Siebnen",,8854,Siebnen,Schwyz,8.900575300000002,47.1753946
Voi,77356,VOI Stans,"Marktgasse 2, 6370 Stans",,6370,Stans,Nidwalden,8.366423,46.9565321
Voi,37337,VOI Steffisburg,"Bahnhofstrasse 87, 3613 Steffisburg",,3613,Steffisburg,Bern,7.616434299999999,46.7733401
Voi,37361,VOI Stettlen,"Bernstrasse 57, 3066 Stettlen",,3066,Stettlen,Bern,7.523622,46.9588294
Voi,37302,VOI Strengelbach,"Langenthalerstrasse 1, 4802 Strengelbach",,4802,Strengelbach,Aargau,7.928628799999999,47.2784613
Voi,37331,VOI Studen,"Hauptstrasse 65, 2557 Studen",,2557,Studen,Bern,7.301450099999999,47.1141569
Voi,37318,VOI Sumiswald,"Spitalstrasse 10, 3454 Sumiswald",,3454,Sumiswald,Bern,7.746411299999999,47.0288633
Voi,37348,VOI Thun Bahnhof,"Panoramastrasse 1a, 3600 Thun",,3600,Thun,Bern,7.6310446,46.7548973
Voi,37304,VOI Trimbach,"Chäppeligasse 5, 4632 Trimbach",,4632,Trimbach,Solothurn,7.894377,47.3688467
Voi,37326,VOI Unterkulm,"Böhlerstrasse 2, 5726 Unterkulm",,5726,Unterkulm,Aargau,8.1136799,47.310751
Voi,127610,VOI Viganello,"alla Chiesa 2, 6962 Viganello",,6962,Viganello,Ticino,8.969114900000001,46.0123679
Voi,37313,VOI Wabern,"Seftigenstrasse 259, 3084 Wabern",,3084,Wabern,Bern,7.4521398,46.92891950000001
Voi,150815,VOI Wallisellen,"Schäfligrabenstrasse 45, 8304 Wallisellen",,8304,Wallisellen,Zürich,8.5975557,47.4197801
Voi,37315,VOI Wangen a. Aare,"Vorstadt 14, 3380 Wangen an der Aare",,3380,Wangen,Bern,7.6554031,47.233916
Voi,37333,VOI Wichtrach,"Dorfplatz 1, 3114 Wichtrach",,3114,Wichtrach,Bern,7.575368399999999,46.851012
Voi,37332,VOI Wilderswil,"Hauptstrasse 27, 3812 Wilderswil",,3812,Wilderswil,Bern,7.869029899999999,46.66603809999999
Voi,37342,VOI Zollbrück,"Langnaustr. 16, 3436 Zollbrück",,3436,Zollbrück,Bern,7.748035999999999,46.9730114
Voi,150801,VOI Zürich - Grünau,"Grünauring 37, 8064 Zürich",,8064,Zürich,Zürich,8.4862828,47.3963579
Voi,150812,VOI Zürich - Hönggerstrasse,"Hönggerstrasse 117, 8037 Zürich",,8037,Zürich,Zürich,8.518380500000001,47.3952772
Voi,150804,VOI Zürich - In der Ey,"Letzigraben 239, 8047 Zürich",,8047,Zürich,Zürich,8.492860199999999,47.3704459
Voi,150809,VOI Zürich - Leimbach,"Ankenweid 10, 8041 Zürich",,8041,Zürich,Zürich,8.515297499999999,47.3297347
Voi,150805,VOI Zürich - Paradies,"Paradiesstrasse 3, 8038 Zürich",,8038,Zürich,Zürich,8.5295276,47.3347475
M-Migros,63740,Vallorbe,"Grand-Rue 23, 1337 Vallorbe",,1337,Vallorbe,Vaud,6.3777699,46.7119013
M-Migros,134240,Verbier,"Les Arcades, 1936 Verbier",,1936,Verbier,Valais,7.2230471,46.096499
M-Migros,44860,Vernier - Arcenter,"Route de Peney 2-4, 1214 Vernier",,1214,Vernier,Genève,6.0837772,46.216972
MM-Migros,64420,Vevey - Midi Coindet,"Av. Gustave Coindet 11, 1800 Vevey",,1800,Vevey,Vaud,6.8402781,46.4636426
M-Migros,63635,Vevey Des 2 Gares,"Rue des Moulins 5 b, 1800 Vevey","Geschlossen, geöffnet ab 28.03.",1800,Vevey,Vaud,6.842102199999999,46.4646969
M-Migros,33613,Villmergen,"Schulhausstrasse 2, 5612 Villmergen",,5612,Villmergen,Aargau,8.2444349,47.3475086
Migros-Partner,137200,Vionnaz,"Route du Léman 33, 1895 Vionnaz",,1895,Vionnaz,Valais,6.8985242,46.3135922
MM-Migros,134480,Visp,"Brückenweg 10, 3930 Visp",,3930,Visp,Valais,7.879561799999999,46.29307000000001
MM-Migros,150061,Volketswil,"Im Zentrum 18, 8604 Volketswil",,8604,Volketswil,Zürich,8.6804591,47.3888666
Migros-Partner,137201,Vétroz,"Rue de la Lizerne 7, 1963 Vétroz",,1963,Vétroz,Valais,7.2600276,46.2153568
MM-Migros,34350,Wabern - Chly Wabere,"Seftigenstrasse 368, 3084 Wabern",,3084,Wabern,Bern,7.459706499999999,46.9224696
M-Migros,93770,Wald ZH,"Bahnhofstrasse 20, 8636 Wald ZH",,8636,Wald,Zürich,8.9147502,47.2748977
M-Migros,90337,Walenstadt,"Bahnhofstrasse 27, 8880 Walenstadt",,8880,Walenstadt,Zürich,9.3134751,47.1218486
M-Migros,150163,Wallisellen,"Bahnhofstrasse 30, 8304 Wallisellen",,8304,Wallisellen,Zürich,8.5918317,47.4135032
MMM-Migros,150670,Wallisellen - Glattzentrum,"Neue Winterthurerstrasse 99, 8304 Wallisellen",,8304,Wallisellen,Zürich,8.5953754,47.4088791
MM-Migros,90452,Wattwil,"Bahnhofstrasse 19, 9630 Wattwil",,9630,Wattwil,St. Gallen,9.087404,47.29923400000001
Migros-Partner,77290,Weggis,"Luzernerstrasse 44, 6353 Weggis",,6353,Weggis,Luzern,8.4259411,47.0340043
M-Migros,73170,Weinbergli Luzern,"Tribschenstrasse 62, 6005 Luzern",,6005,Luzern,Aargau,8.3167226,47.0423617
MM-Migros,90455,Weinfelden - Rösslifelsen,"Amriswilerstrasse 12, 8570 Weinfelden",,8570,Weinfelden,Zürich,9.1107625,47.5675849
M-Migros,90387,Weinfelden Weststrasse,"Weststrasse 27/29, 8570 Weinfelden",,8570,Weinfelden,Zürich,9.0941682,47.5674362
MM-Migros,34323,Wettingen - Landstrasse,"Landstrasse 69, 5430 Wettingen",,5430,Wettingen,Aargau,8.3241973,47.46711380000001
MMM-Migros,94720,Wetzikon - Züri-Oberland-Märt,"Bahnhofstrasse 151, 8620 Wetzikon",,8620,Wetzikon,Zürich,8.7993433,47.3283228
MM-Migros,90458,Widnau - Rhydorf-Center,"Bahnhofstrasse 2, 9443 Widnau",,9443,Widnau,Zürich,9.628952,47.4075159
MM-Migros,90461,Wil SG,"Obere Bahnhofstrasse 5, 9500 Wil SG",,9500,Wil,Zürich,9.042736999999999,47.4626579
M-Migros,33793,Wildegg,"Bruggerstrasse 11 c, 5103 Wildegg",,5103,Wildegg,Aargau,8.1664129,47.416304
M-Migros,73780,Willisau - Chrüzhof,"Ettiswilerstrasse 14, 6130 Willisau",,6130,Willisau,Luzern,7.9948564,47.1237225
M-Migros,33703,Windisch,"Bachmattstrasse 35, 5210 Windisch",,5210,Windisch,Aargau,8.2126997,47.4746865
M-Migros,93610,Winterthur - Blumenau,"Wülflingerstrasse 71, 8400 Winterthur",,8400,Winterthur,Zürich,8.7121959,47.5068421
M-Migros,93810,Winterthur - Deutweg,"Pflanzschulstrasse 9, 8400 Winterthur",,8400,Winterthur,Zürich,8.740240499999999,47.4947443
M-Migros,93680,Winterthur - Hegi,"Hintermühlenstrasse 4, 8409 Winterthur",,8409,Winterthur,Zürich,8.772159799999999,47.5042359
MMM-Migros,94730,Winterthur - Neuwiesen,"Strickerstrasse 3, 8400 Winterthur",,8400,Winterthur,Zürich,8.7207168,47.499456
M-Migros,93120,Winterthur - Obertor,"Stadthausstrasse 31, 8400 Winterthur",,8400,Winterthur,Zürich,8.731833199999999,47.500083
MM-Migros,94250,Winterthur - Oberwinterthur,"Guggenbühlstrasse 1, 8404 Winterthur",,8404,Winterthur,Zürich,8.7588005,47.511005
MM-Migros,94740,Winterthur - Rosenberg,"Schaffhauserstrasse 154, 8400 Winterthur",,8400,Winterthur,Zürich,8.7194715,47.51830349999999
MM-Migros,94270,Winterthur - Seen,"Hinterdorfstrasse 40, 8405 Winterthur",,8405,Winterthur,Zürich,8.7625727,47.4852907
M-Migros,94260,Winterthur - Töss,"Zürcherstrasse 102, 8406 Winterthur",,8406,Winterthur,Zürich,8.7064361,47.4919622
M-Migros,93690,Winterthur - Wülflingen,"Lindenplatz 1, 8408 Winterthur",,8408,Winterthur,Zürich,8.6937533,47.51072010000001
MM-Migros,90390,Wittenbach,"Oedenhof 1c, 9300 Wittenbach",,9300,Wittenbach,Zürich,9.3890432,47.4605131
MM-Migros,34333,Wohlen,"Bahnhofstrasse 7, 5610 Wohlen AG",,5610,Wohlen,Aargau,8.2727383,47.349079
MM-Migros,74320,Wolhusen - Dorfmärt,"Entlebucherstr. 36, 6110 Wolhusen",,6110,Wolhusen,Luzern,8.0704621,47.0562294
M-Migros,150050,Wollerau Märt Roospark,"Roosstrasse 23, 8832 Wollerau",,8832,Wollerau,Schwyz,8.7217431,47.1919
MM-Migros,34340,Worb,"Richigenstrasse 1, 3076 Worb",,3076,Worb,Bern,7.5652112,46.9268126
M-Migros,73300,Wylpark Hergiswil,"Seestrasse 43, 6052 Hergiswil NW",,6052,Hergiswil,Nidwalden,8.3123934,46.9871367
MMM-Migros,150252,Wädenswil,"Oberdorfstrasse 27-31, 8820 Wädenswil",,8820,Wädenswil,Zürich,8.667711299999999,47.2292101
Migros Fachmarkt,150165,Wädenswil Zürisee Center,"Rütistrasse 1, 8820 Wädenswil",,8820,Wädenswil,Zürich,8.63663,47.23521
MMM-Migros,64950,Yverdon - Métropole,"Rue de Neuchâtel 3, 1400 Yverdon-les-Bains",,1400,Yverdon,Vaud,6.6358017,46.7814158
M-Migros,63750,Yverdon Sud,"Rue de Lausanne 10, 1400 Yverdon-les-Bains",,1400,Yverdon,Vaud,6.6504616,46.7665863
Migros-Partner,63100,Yvonand,"Rue des Vergers, 1462 Yvonand",,1462,Yvonand,Vaud,6.743169,46.7993082
M-Migros,73810,Zell,"Zelgmatte 2, 6144 Zell LU",,6144,Zell,Luzern,7.928467500000001,47.1371471
MM-Migros,134220,Zermatt,"Hofmattstrasse 12, 3920 Zermatt",,3920,Zermatt,Valais,7.7482835,46.0217657
MM-Migros,34363,Zofingen,"Aarburgerstrasse 5, 4800 Zofingen",,4800,Zofingen,Aargau,7.942337,47.2915
M-Migros,33200,Zollikofen,"Bernstrasse 103, 3052 Zollikofen",,3052,Zollikofen,Bern,7.4569869,46.993318
M-Migros,150177,Zollikon - Dorf,"Rotfluhstrasse 100, 8702 Zollikon",,8702,Zollikon,Zürich,8.5761609,47.3377418
Migros-Partner,29550,Zollweiden,"Baselstrasse 71, 4142 Münchenstein",,4142,Münchenstein,Basel-Landschaft,7.6177195,47.5228328
M-Migros,33863,Zuchwil,"Hauptstrasse 60-62, 4528 Zuchwil",,4528,Zuchwil,Solothurn,7.56039,47.203481
M-Migros,73190,Zug - Grabenstrasse,"Grabenstrasse 5, 6300 Zug",,6300,Zug,Luzern,8.515191399999999,47.16521789999999
MM-Migros,74330,Zug - Metalli,"Baarerstrasse 22, 6300 Zug",,6300,Zug,Luzern,8.5182469,47.1731163
M-Migros,73120,Zug Herti,"Hertizentrum 10, 6300 Zug",,6300,Zug,Luzern,8.5059051,47.1780321
MM-Migros,150190,Zumikon,"Dorfstrasse 17, 8126 Zumikon",,8126,Zumikon,Zürich,8.618935000000002,47.3365527
M-Migros,90391,Zuzwil,"Herbergstrasse 17, 9524 Zuzwil SG",,9524,Zuzwil,St. Gallen,9.1127377,47.4719171
M-Migros,34411,Zweisimmen,"Thunstrasse 11, 3770 Zweisimmen",,3770,Zweisimmen,Bern,7.3755387,46.5661479
MM-Migros,150015,Zürich - Affoltern,"Jonas-Furrer-Strasse 21, 8046 Zürich",,8046,Zürich,Zürich,8.5081698,47.42047710000001
MM-Migros,150193,Zürich - Airport,"Flughafen Zürich AG, 8058 Zürich - Flughafen",,8058,Zürich,Zürich,8.5505915,47.4618911
M-Migros,150327,Zürich - Albisriederplatz,"Badenerstrasse 376, 8004 Zürich",,8004,Zürich,Zürich,8.5087542,47.3791051
Voi,150814,Zürich - Albisriederstrasse,"Albisriederstrasse 253, 8047 Zürich",,8047,Zürich,Zürich,8.4938779,47.3783453
M-Migros,150360,Zürich - Altstetten M-Express,"Hohlstrasse 600, 8048 Zürich",,8048,Zürich,Zürich,8.4877977,47.3913612
MMM-Migros,150201,Zürich - Altstetten Neumarkt,"Altstetterstrasse 145, 8048 Zürich",,8048,Zürich,Zürich,8.486922,47.3881781
M-Migros,150303,Zürich - Bahnhof Enge,"Tessinerplatz 10, 8002 Zürich",,8002,Zürich,Zürich,8.5310291,47.36413049999999
MM-Migros,150665,Zürich - Brunaupark,"Giesshübelstrasse 65, 8045 Zürich",,8045,Zürich,Zürich,8.5177964,47.35826350000001
M-Migros,150117,Zürich - Burgwies,"Forchstrasse 260, 8008 Zürich",,8008,Zürich,Zürich,8.5716275,47.3576042
MMM-Migros,150202,Zürich - City,"Löwenstrasse 31-35, 8001 Zürich",,8001,Zürich,Zürich,8.5360797,47.37538319999999
M-Migros,150361,Zürich - HB Sihlquai,"Sihlpassage, 8004 Zürich",,8004,Zürich,Zürich,8.5230714,47.37494119999999
M-Migros,150184,Zürich - Hauptbahnhof,"Hauptbahnhof, 8001 Zürich",,8001,Zürich,Zürich,8.5391097,47.3779303
Migros,150013,Zürich - Herdern,"Pfingstweidstrasse 101, 8005 Zürich",,8005,Zürich,Zürich,8.508951999999999,47.3902225
M-Migros,150077,Zürich - Höngg,"Regensdorferstrasse 20, 8049 Zürich",,8049,Zürich,Zürich,8.497187199999999,47.4037537
M-Migros,150116,Zürich - Höschgasse,"Seefeldstrasse 111-113, 8008 Zürich",,8008,Zürich,Zürich,8.5541587,47.358365
MM-Migros,150009,Zürich - Kreuzplatz,"Kreuzplatz 20, 8008 Zürich",,8008,Zürich,Zürich,8.5537736,47.3645128
M-Migros,150183,Zürich - Leimbach Sihlbogen,"Leimbachstrasse 23, 8041 Zürich",,8041,Zürich,Zürich,8.518949,47.3360431
MMM-Migros,150018,Zürich - Limmatplatz,"Limmatstrasse 152, 8005 Zürich",,8005,Zürich,Zürich,8.531409199999999,47.38546299999999
MM-Migros,150017,Zürich - Oerlikon Neumarkt,"Hofwiesenstrasse 350-354, 8050 Zürich",,8050,Zürich,Zürich,8.5430437,47.4105054
M-Migros,150132,Zürich - Puls 5 M-Express,"Hardturmstrasse 11, 8005 Zürich",,8005,Zürich,Zürich,8.5184888,47.3913439
M-Migros,150122,Zürich - Pünt,"Albisriederstrasse 365, 8047 Zürich",,8047,Zürich,Zürich,8.485711199999999,47.37520869999999
M-Migros,150115,Zürich - Rigiplatz,"Winterthurerstrasse 2-4, 8006 Zürich",,8006,Zürich,Zürich,8.5486902,47.3860579
M-Migros,150312,Zürich - Schaffhauserplatz,"Schaffhauserstrasse 75, 8057 Zürich",,8057,Zürich,Zürich,8.5384811,47.3925426
M-Migros,150120,Zürich - Schmiede Wiedikon,"Birmensdorferstrasse 140, 8003 Zürich",,8003,Zürich,Zürich,8.520128399999999,47.3700773
M-Migros,150014,Zürich - Schwamendingen,"Winterthurerstrasse 524, 8051 Zürich",,8051,Zürich,Zürich,8.572517399999999,47.403942
MM-Migros,150020,Zürich - Seebach,"Schaffhauserstrasse 470, 8052 Zürich",,8052,Zürich,Zürich,8.5483282,47.4195302
M-Migros,150140,Zürich - ShopVilleMärt,"Shop Ville, 8001 Zürich",,8001,Zürich,Zürich,8.5401768,47.3779341
M-Migros,150007,Zürich - Stadelhofen,"Falkenstrasse 19 - 21, 8008 Zürich",,8008,Zürich,Zürich,8.5479668,47.3654461
M-Migros,150131,Zürich - Stockerstrasse M-Express,"Stockerstrasse 47, 8002 Zürich",,8002,Zürich,Zürich,8.5341709,47.3683421
M-Migros,150319,Zürich - Toblerplatz,"Toblerstrasse 73, 8044 Zürich",,8044,Zürich,Zürich,8.5593843,47.3793079
M-Migros,150010,Zürich - Wengihof,"Wengistrasse 7, 8004 Zürich",,8004,Zürich,Zürich,8.5230714,47.37494119999999
MM-Migros,150016,Zürich - Wiedikon M-Märt,"Birmensdorferstrasse 320, 8055 Zürich",,8055,Zürich,Zürich,8.508720799999999,47.3699559
M-Migros,150326,Zürich - Wipkingen,"Scheffelstrasse 3, 8037 Zürich",,8037,Zürich,Zürich,8.5292338,47.3937726
MM-Migros,150011,Zürich - Witikon-Zentrum,"Witikonerstrasse 293, 8053 Zürich",,8053,Zürich,Zürich,8.5856,47.35909299999999
MM-Migros,150008,Zürich - Wollishofen,"Etzelstrasse 3, 8038 Zürich",,8038,Zürich,Zürich,8.53,47.34472220000001
Migros-Supermarkt,93020,teo Bürglen,"Weinfelderstrasse 33a, 8575 Bürglen",,8575,Bürglen,Zürich,9.1457863,47.5529795
Migros-Supermarkt,150261,teo Dietlikon,"Brunnenwiesenstrasse 22, 8305 Dietlikon",,8305,Dietlikon,Zürich,8.620283299999999,47.4171213
Migros-Supermarkt,150260,teo Kloten,"Lindenstrasse 18, 8302 Kloten",,8302,Kloten,Zürich,8.584454899999999,47.44894619999999
Migros-Supermarkt,93010,teo Neuhegi,"Sulzerallee 54, 8404 Winterthur",,8404,Winterthur,Zürich,8.7632312,47.5021268
